stn,wban,name,country,state,call,lat,lon,elev,begin,end,zip
744910,14703,WESTOVER AFB/METROPOLITAN AIR,US,MA,KCEF,42.2,-72.533,+0073.5,19410401,20180403,01022
744910,99999,CHICOPEE FALLS/WEST,US,MA,KCEF,42.2,-72.533,+0075.0,20000101,20071231,01022
999999,14775,WESTFIELD BARNES MUNI AP,US,MA,KBAF,42.158,-72.716,+0082.6,19490101,19520502,01085
744915,14775,BARNES MUNICIPAL AIRPORT,US,MA,KBAF,42.158,-72.716,+0082.6,19730105,20180403,01085
744915,99999,BARNES MUNI,US,MA,KBAF,42.15,-72.717,+0083.0,20000101,20031231,01085
744104,99999,PITTSFIELD MUNI,US,MA,KPSF,42.433,-73.3,+0364.0,20010811,20071231,01201
999999,14763,PITTSFIELD MUNICIPAL AP,US,MA,KPSF,42.427,-73.289,+0363.9,19480101,20041231,01201
744104,14763,PITTSFIELD MUNICIPAL ARPT,US,MA,KPSF,42.427,-73.289,+0363.9,20060101,20180403,01201
744916,99999,PITTSFIELD MUNI,US,MA,PSF,42.433,-73.3,+0364.0,19730122,19900118,01201
725075,99999,HARRIMAN AND WEST,US,MA,KAQW,42.696,-73.17,+0199.0,19730101,20071231,01247
725075,54768,HARRIMAN-AND-WEST AIRPORT,US,MA,KAQW,42.697,-73.17,+0195.1,20060101,20180403,01247
725085,99999,ORANGE MUNI,US,MA,KORE,42.567,-72.283,+0169.0,20000101,20031231,01364
725085,54756,ORANGE MUNICIPAL AIRPORT,US,MA,KORE,42.57,-72.291,+0169.2,19960702,20180403,01364
725107,99999,FITCHBURG MUNI,US,MA,KFIT,42.554,-71.759,+0106.0,20000101,20031231,01420
999999,04780,FITCHBURG MUNICIPAL AP,US,MA,KFIT,42.552,-71.756,+0106.1,19550101,19591231,01420
725107,04780,FITCHBURG MUNICIPAL ARP,US,MA,KFIT,42.552,-71.756,+0106.1,19971002,20180403,01420
744905,04779,FORT DEVENS/AYER,US,MA,KAYE,42.567,-71.6,+0082.0,19601021,19930201,01432
725100,94746,WORCESTER REGIONAL AIRPORT,US,MA,KORH,42.271,-71.873,+0304.8,20100801,20180403,01602
725095,94746,WORCESTER RGNL,US,MA,KORH,42.271,-71.873,+0310.0,19730101,20100731,01602
999999,94746,WORCESTER MUNICIPAL ARPT,US,MA,KORH,42.271,-71.873,+0310.0,19490101,19721231,01602
725059,14702,LAURENCE G HANSCOM FLD APT,US,MA,KBED,42.47,-71.289,+0040.5,20060101,20180403,01730
744900,14702,BEDFORD HANSCOM FIELD,US,MA,KBED,42.47,-71.289,+0040.5,19430205,19921231,01730
744904,94723,LAWRENCE MUNICIPAL AIRPORT,US,MA,KLWM,42.717,-71.124,+0045.4,20060101,20180403,01845
744904,99999,LAWRENCE MUNI,US,MA,KLWM,42.717,-71.117,+0045.0,19790122,20071231,01845
725088,54733,BEVERLY MUNICIPAL AIRPORT,US,MA,KBVY,42.584,-70.918,+0032.9,20060101,20180403,01923
725088,99999,BEVERLY MUNI,US,MA,KBVY,42.583,-70.917,+0033.0,19740220,20071231,01923
744907,14753,EAST MILTON,US,MA,KMQE,42.212,-71.114,+0193.5,20000101,20180322,02021
722256,64774,MARSHFIELD MUNICIPAL AIRPORT,US,MA,KGHG,42.098,-70.672,+0003.4,20061024,20180403,02050
725098,54704,NORWOOD MEMORIAL AIRPORT,US,MA,KOWD,42.191,-71.174,+0015.2,20060101,20180404,02062
725098,99999,NORWOOD MEM,US,MA,KOWD,42.183,-71.167,+0015.0,19730101,20071231,02062
725090,14739,GEN E L LOGAN INTERNATIONAL A,US,MA,KBOS,42.361,-71.01,+0003.7,19431121,20180403,02128
725064,54769,PLYMOUTH MUNICIPAL AIRPORT,US,MA,KPYM,41.91,-70.729,+0045.4,20060101,20180404,02360
725064,99999,PLYMOUTH MUNICIPAL,US,MA,KPYM,41.909,-70.729,+0045.0,19850226,20071231,02360
999999,14790,SOUTH WEYMOUTH NAS,US,MA,KNZW,42.15,-70.933,+0049.4,19460401,20041231,02370
725097,14790,NAVAL AIR STATION,US,MA,KNZW,42.15,-70.933,+0049.1,19730101,19960928,02370
725066,94724,MARTHAS VINEYARD AIRPORT,US,MA,KMVY,41.393,-70.615,+0020.7,20060101,20180404,02539
725060,14704,NANTUCKET MEM,US,MA,KFMH,41.65,-70.517,+0040.2,20060101,20100731,02542
725061,14704,OTIS ANGB AIRPORT,US,MA,KFMH,41.65,-70.517,+0039.6,20100801,20180403,02542
725063,14756,NANTUCKET MEM,US,MA,KACK,41.253,-70.061,+0014.3,19900314,20120801,02554
725060,14756,NANTUCKET MEMORIAL AIRPORT,US,MA,KACK,41.253,-70.061,+0014.6,20120801,20180403,02554
725061,14756,OTIS ANGB,US,MA,KACK,41.253,-70.061,+0014.3,19730101,19900219,02554
999999,14756,NANTUCKET MEMORIAL AP,US,MA,KACK,41.253,-70.061,+0014.3,19480101,19721231,02554
725066,99999,MARTHAS VINEYARD,US,MA,KMVY,41.4,-70.617,+0020.0,19730101,20071231,02568
725067,94720,BRNSBL MUNI-BMAN/POL FD AP,US,MA,KHYA,41.669,-70.28,+0016.8,20060101,20180403,02601
744940,99999,CHATHAM,US,MA,KCHH,41.667,-69.967,+0015.5,19730101,19950321,02633
725069,94624,CHATHAM MUNICIPAL AIRPORT,US,MA,KCQX,41.688,-69.993,+0020.7,20060101,20180403,02633
725069,99999,CHATHAM MUNI,US,MA,KCQX,41.683,-69.983,+0021.0,19750911,20071231,02633
725073,64708,PROVINCETOWN MUNI AIRPORT,US,MA,KPVC,42.072,-70.221,+0002.4,20060101,20180403,02657
725073,99999,PROVINCETOWN MUNI,US,MA,KPVC,42.067,-70.217,+0003.0,19880424,20071231,02657
725067,99999,BARNSTABLE MUNI BOA,US,MA,KHYA,41.667,-70.267,+0017.0,19730101,20071231,02673
725068,54777,TAUNTON MUNICIPAL AIRPORT,US,MA,KTAN,41.876,-71.021,+0013.1,20060101,20180403,02718
725068,99999,TAUNTON MUNI,US,MA,KTAN,41.867,-71.017,+0013.0,19421002,20071231,02718
725065,94726,NEW BEDFORD RGNL AIRPORT,US,MA,KEWB,41.676,-70.958,+0024.4,20060101,20180404,02745
725065,99999,NEW BEDFORD RGNL,US,MA,KEWB,41.667,-70.95,+0024.0,19730101,20071231,02746
725184,99999,ALBANY (NEXRAD),US,NY,CXX,44.517,-73.167,+0131.0,20020422,20020422,05446
720553,99999,PORT AUTH DOWNTN MANHATTAN WA,US,NY,KJRB,40.701,-74.009,+0002.1,20160720,20180402,10005
725060,94728,NEW YORK CENTRAL PARK,US,NY,KNYC,40.779,-73.969,+0047.5,20100801,20120801,10024
999999,94728,NEW YORK CENTRAL PARK ARSNL B,US,NY,KNYC,40.779,-73.969,+0047.5,19650101,19991231,10024
725053,94728,CENTRAL PARK,US,NY,KNYC,40.779,-73.969,+0042.7,20120801,20180403,10024
725033,94728,NYC CENTRAL PARK,US,NY,KNYC,40.779,-73.969,+0047.5,19431201,20100731,10024
725037,94745,WESTCHESTER COUNTY AIRPORT,US,NY,KHPN,41.067,-73.708,+0115.5,19730101,20180404,10604
999999,94745,WHITE PLAINS WESTCHESTER CO A,US,NY,KHPN,41.067,-73.708,+0121.0,19490101,19721231,10604
999999,14786,NEW YORK FLOYD BENNE,US,NY,NSC,40.583,-73.883,+0004.9,19450401,19701101,11234
725030,14732,LA GUARDIA AIRPORT,US,NY,KLGA,40.779,-73.88,+0003.4,19730101,20180403,11371
999999,14732,NEW YORK LAGUARDIA ARPT,US,NY,KLGA,40.779,-73.88,+0009.4,19480701,19721231,11371
999999,94789,NEW YORK FORT TOTTEN,US,NY,KJFK,40.639,-73.762,+0006.7,19480701,19721231,11430
744860,94789,JOHN F KENNEDY INTERNATIONAL,US,NY,KJFK,40.639,-73.762,+0003.4,19730101,20180403,11430
744864,54787,REPUBLIC AIRPORT,US,NY,KFRG,40.734,-73.417,+0024.7,20060101,20180404,11735
744864,99999,REPUBLIC,US,NY,KFRG,40.717,-73.4,+0025.0,19430412,20071231,11757
725035,04781,LONG ISLAND MAC ART,US,NY,KISP,40.794,-73.102,+0030.2,19730101,20100731,11779
725050,04781,LONG ISLAND MAC ARTHUR AIRPOR,US,NY,KISP,40.794,-73.102,+0025.6,20100801,20180403,11779
725034,99999,CALVERTON/GRUMMAN,US,NY,KCTO,40.917,-72.783,+0023.0,19820927,19910109,11933
744865,99999,WESTHAMPTON BEACH,US,NY,KFOK,40.85,-72.617,+0020.0,20000101,20031231,11942
725014,99999,MONTAUK,US,NY,KMTP,41.083,-71.917,+0002.0,19990114,20071231,11954
725014,54780,MONTAUK AIRPORT,US,NY,KMTP,41.073,-71.923,+0002.1,20060101,20180403,11954
725016,99999,BROOKHAVEN,US,NY,KHWV,40.817,-72.867,+0025.0,20010828,20071231,11967
725016,54790,BROOKHAVEN AIRPORT,US,NY,KHWV,40.822,-72.869,+0025.0,20060101,20180404,11967
722098,99999,EAST HAMPTON,US,NY,KHTO,40.967,-72.25,+0017.0,20040713,20071231,11975
722098,64761,EAST HAMPTON AIRPORT,US,NY,KHTO,40.96,-72.252,+0017.1,20060101,20180403,11975
744865,14719,FRANCIS S GABRESKI AP,US,NY,KFOK,40.844,-72.632,+0020.4,19430718,20180403,11978
999999,14735,ALBANY COUNTY AP,US,NY,KALB,42.743,-73.809,+0089.0,19450101,19721231,12110
725180,14735,ALBANY INTERNATIONAL AIRPORT,US,NY,KALB,42.747,-73.799,+0085.3,19460101,20180403,12110
744994,99999,SCHENECTADY CO,US,NY,KSCH,42.85,-73.917,+0115.0,20000101,20031231,12302
999999,04741,SCHENECTADY,US,NY,KSCH,42.85,-73.95,+0115.2,19500101,19771201,12302
744994,04741,SCHENECTADY COUNTY AIRPORT,US,NY,KSCH,42.85,-73.95,+0115.2,19810421,20180403,12302
725198,99999,MILLBROOK/SKY ACRES,US,NY,K44N,41.7,-73.733,+0213.0,19890714,19960214,12540
725015,04789,ORANGE COUNTY AIRPORT,US,NY,KMGJ,41.509,-74.265,+0111.3,20060101,20180403,12549
725015,99999,ORANGE CO,US,NY,KMGJ,41.51,-74.26,+0111.0,19990114,20071231,12549
725038,99999,STEWART INTL,US,NY,KSWF,41.5,-74.1,+0150.0,20000101,20071231,12553
725038,14714,STEWART INTERNATIONAL AIRPORT,US,NY,KSWF,41.5,-74.1,+0149.7,19420802,20180403,12553
725036,99999,DUTCHESS CO,US,NY,KPOU,41.617,-73.883,+0050.0,20000101,20031231,12590
999999,14757,POUGHKEEPSIE DUTCHESS CO AP,US,NY,KPOU,41.627,-73.884,+0049.4,19490101,19550101,12590
725036,14757,DUTCHESS COUNTY AIRPORT,US,NY,KPOU,41.626,-73.882,+0050.6,19730101,20180403,12590
725145,54746,SULLIVAN COUNTY INTL ARPT,US,NY,KMSV,41.701,-74.795,+0427.6,20060101,20180403,12783
725145,99999,SULLIVAN CO INTL,US,NY,KMSV,41.7,-74.8,+0428.0,19810212,20071231,12783
999999,14750,GLENS FALLS AP,US,NY,KGFL,43.35,-73.617,+0101.5,19490201,19550101,12804
725220,14750,FLOYD BENNETT MEMO AIRPORT,US,NY,KGFL,43.338,-73.61,+0097.8,20100801,20180403,12804
725185,14750,FLOYD BENNETT MEM,US,NY,KGFL,43.35,-73.617,+0101.5,19730101,20100801,12804
726225,04742,PLATTSBURGH INTL,US,NY,KPBG,44.651,-73.468,+0071.0,19560115,19950927,12901
726225,64776,PLATTSBURGH INTERNATIONAL AIR,US,NY,KPBG,44.65,-73.467,+0071.3,20070618,20180403,12901
725187,99999,CLINTON CO,US,NY,KPLB,44.683,-73.517,+0113.0,19780823,20070522,12901
725187,94733,CLINTON COUNTY AIRPORT,US,NY,KPLB,44.687,-73.523,+0113.4,20060101,20070524,12901
726228,99999,ADIRONDACK RGNL,US,NY,KSLK,44.383,-74.2,+0507.0,19730101,20071231,12983
726228,94740,ADIRONDACK REGIONAL ARPT,US,NY,KSLK,44.385,-74.207,+0506.9,20060101,20180403,12983
725146,54773,OSWEGO COUNTY AIRPORT,US,NY,KFZY,43.35,-76.385,+0144.8,20060101,20180403,13069
725146,99999,OSWEGO CO,US,NY,KFZY,43.35,-76.383,+0145.0,19990114,20071231,13069
725190,14771,SYRACUSE HANCOCK INTERNATIONA,US,NY,KSYR,43.111,-76.104,+0125.9,19421001,20180403,13211
999999,14771,SYRACUSE MUNICIPL AP,US,NY,KSYR,43.111,-76.104,+0127.1,19650101,19721231,13211
725197,94794,ONEIDA COUNTY AIRPORT,US,NY,KUCA,43.145,-75.384,+0216.7,19730101,20070118,13424
999999,94794,UTICA ONEIDA COUNTY AP,US,NY,KUCA,43.145,-75.384,+0226.8,19501201,19550101,13424
725196,64775,GRIFFIS AIRFIELD,US,NY,KRME,43.234,-75.412,+0158.2,20070102,20180403,13441
725196,14717,GRIFFISS AIRPARK,US,NY,KRME,43.234,-75.407,+0154.0,19420701,19980923,13441
743700,14715,WHEELER-SACK AAF AIRPORT,US,NY,KGTB,44.05,-75.733,+0209.7,20060101,20180403,13602
743700,99999,FORT DRUM/WHEELER-S,US,NY,KGTB,44.05,-75.733,+0207.0,19420101,20071231,13602
999999,94790,WATERTOWN AP,US,NY,KART,43.992,-76.022,+0101.5,19650101,19650101,13634
726227,94790,WATERTOWN INTL AIRPORT,US,NY,KART,43.989,-76.026,+0096.9,19490501,20180403,13634
999999,94725,MASSENA AP,US,NY,KMSS,44.936,-74.846,+0065.2,19490201,19721231,13662
726221,94725,MASSENA AP,US,NY,KMSS,44.936,-74.846,+0065.2,19730101,19900228,13662
726223,94725,MASSENA INTL/RCHARDS FD AP,US,NY,KMSS,44.936,-74.846,+0065.2,19900301,20180403,13662
725186,99999,OGDENSBURG INTL,US,NY,KOGS,44.682,-75.466,+0090.5,19770502,20180402,13669
999999,04725,BINGHAMTON BROOME COUNTY ARPT,US,NY,KBGM,42.207,-75.98,+0499.3,19480101,19721231,13790
725150,04725,GREATER BINGHAMTON/E A LINK F,US,NY,KBGM,42.207,-75.98,+0486.2,19730101,20180403,13790
744989,14747,CHAUTAUQUA CO/DUNKIRK ARPT,US,NY,KDKK,42.493,-79.272,+0203.0,19970102,20180403,14048
999999,14747,DUNKIRK CHAUTAUQUA CO AP,US,NY,KDKK,42.493,-79.272,+0211.2,19490101,19540101,14048
744989,99999,CHAUTAUQUA CO DUNKIR,US,NY,KDKK,42.493,-79.272,+0211.0,20000101,20031231,14048
725280,14733,BUFFALO NIAGARA INTERNATIONAL,US,NY,KBUF,42.941,-78.736,+0218.2,19420201,20180403,14225
999999,14733,BUFFALO BUFFALO ARPT,US,NY,KBUF,42.941,-78.736,+0214.9,19720101,19721231,14225
725287,99999,NIAGARA FALLS INTL,US,NY,KIAG,43.1,-78.933,+0180.0,20000101,20031231,14304
725287,04724,NIAGARA FALLS INTL AIRPORT,US,NY,KIAG,43.108,-78.938,+0178.3,19510612,20180403,14304
725230,94704,DANSVILLE/MUNICIPAL,US,NY,KDSV,42.571,-77.713,+0201.8,19730101,19850131,14437
724988,94704,DANSVILLE MUNICIPAL ARPT,US,NY,KDSV,42.571,-77.713,+0208.8,20010102,20180403,14437
724988,99999,DANSVILLE MUNI,US,NY,KDSV,42.571,-77.713,+0202.0,20010811,20031231,14437
999999,94704,DANSVILLE MUNI AP,US,NY,KDSV,42.571,-77.713,+0201.8,19490101,20001101,14437
725194,54778,PENN YAN AIRPORT,US,NY,KPEO,42.643,-77.056,+0275.2,20060101,20180403,14527
725194,99999,PENN YAN,US,NY,KPEO,42.633,-77.05,+0302.0,19990114,20071231,14527
999999,14768,ROCHESTER MONROE CO ARPT,US,NY,KROC,43.117,-77.677,+0169.2,19480101,19721231,14624
725290,14768,GREATER ROCHESTER INTERNATION,US,NY,KROC,43.117,-77.677,+0164.3,19730101,20180403,14624
725235,04720,CHAUTAUQUA CO/JAMESTOWN AP,US,NY,KJHW,42.15,-79.25,+0525.2,20060101,20180403,14701
725235,99999,CHATAUQUA CO JAMESTO,US,NY,KJHW,42.153,-79.258,+0525.0,19730101,20071231,14701
725283,00465,CATTARAUGUS COUNTY OLEAN AIRP,US,NY,KOLE,42.241,-78.371,+0651.1,20130101,20180322,14743
725283,99999,CATTARAUGUS CO OLEAN,US,NY,KOLE,42.241,-78.371,+0650.7,19870813,20180402,14743
999999,14748,ELMIRA AIRPORT,US,NY,KELM,42.159,-76.892,+0290.8,19490201,19550101,14845
725156,14748,ELMIRA/CORNING RGNL ARPT,US,NY,KELM,42.159,-76.892,+0291.1,19730101,20180403,14845
725155,94761,ITHACA TOMPKINS REGIONAL AIRP,US,NY,KITH,42.483,-76.467,+0335.0,20060101,20180403,14850
725155,99999,ITHACA TOMPKINS RGNL,US,NY,KITH,42.491,-76.467,+0335.0,19730101,20071231,14850
725157,54757,MUNI ARPT TARANTINE FLD AP,US,NY,KELZ,42.109,-77.992,+0647.4,20060101,20180403,14895
725157,99999,WELLSVILLE MUNI,US,NY,KELZ,42.11,-77.99,+0647.0,19780614,20071231,14895
725156,99999,ELMIRA CORNING RGNL,US,NY,KELM,42.15,-76.883,+0291.0,20000101,20031231,14903
747808,99999,GWINNETT COUNTY ARPT,US,GA,KLZU,33.978,-83.962,+0323.0,20020430,20071231,30043
747808,63803,GWINNETT CO-BRISCOE FD APT,US,GA,KLZU,33.98,-83.963,+0323.4,20060101,20180403,30043
999999,13864,MARIETTA DOBBINS AAF,US,GA,KMGE,33.917,-84.517,+0325.5,19710101,19710101,30069
722270,99999,MARIETTA/DOBBINS AF,US,GA,KMGE,33.917,-84.517,+0326.0,20000101,20071231,30069
722270,13864,DOBBINS AIR RESERVE BASE AIRP,US,GA,KMGE,33.917,-84.517,+0325.5,19460901,20180403,30069
722109,63848,CANTON/CHEROKEE ARPT,US,GA,K47A,34.311,-84.424,+0371.6,20060101,20180402,30107
722109,99999,CHEROKEE COUNTY AIRPORT,US,GA,KCNI,34.3,-84.417,+0372.0,20040525,20071231,30107
720674,00249,WEST GEORGIA REGIONAL AIRPORT,US,GA,KCTJ,33.633,-85.15,+0354.2,20130101,20171005,30117
720674,99999,WEST GEORGIA RGNL O V GRAY FL,US,GA,KCTJ,33.631,-85.152,+0353.9,20100129,20180402,30117
722156,99999,CARTERSVILLE,US,GA,KVPC,34.117,-84.85,+0231.0,20010705,20071231,30120
722156,53873,CARTERSVILLE AIRPORT,US,GA,KVPC,34.123,-84.849,+0232.6,20060101,20180403,30120
747812,99999,COBB CO MCCOLLUM FLD,US,GA,KRYY,34.013,-84.599,+0317.0,20020430,20071231,30144
747812,63813,COBB CO-MC COLLUM FLD ARPT,US,GA,KRYY,34.013,-84.599,+0317.0,20060101,20180403,30144
720714,00252,PAULDING NORTHWEST ATLANTA AI,US,GA,KPUJ,33.912,-84.941,+0393.2,20170308,20180402,30157
720714,99999,PAULDING COUNTY AIRPORT,US,GA,KPUJ,33.912,-84.941,+0393.0,20100425,20180322,30157
723200,99999,ROME/RUSSELL(RAMOS),US,GA,KRMG,34.35,-85.167,+0196.0,20000101,20031231,30165
723200,93801,RICHARD B RUSSELL AIRPORT,US,GA,KRMG,34.348,-85.161,+0194.8,19780101,20180403,30165
999999,93801,ROME R B RUSSELL AP,US,GA,KRMG,34.348,-85.161,+0196.3,19480101,19771222,30165
720966,00339,GRIFFIN SPALDING COUNTY AIRPO,US,GA,K6A2,33.227,-84.275,+0292.3,20130101,20180402,30224
720966,99999,GRIFFIN SPALDING CO,US,GA,K6A2,33.227,-84.275,+0292.0,20111118,20180303,30224
749011,99999,LA GRANGE GA/GALLOWAY APT FAA,US,GA,GA33,33.016,-85.066,+0216.0,19530701,19550101,30240
747807,03821,LAGRANGE-CALLAWAY AIRPORT,US,GA,KLGC,33.017,-85.067,+0207.9,20060101,20180403,30240
747807,99999,LAGRANGE CALLAWAY,US,GA,KLGC,33.017,-85.067,+0211.0,20020423,20071231,30240
722176,53884,NEWNAN COWETA COUNTY ARPT,US,GA,KCCO,33.312,-84.77,+0295.7,20060101,20180403,30263
722176,99999,NEWNAN COWETA CO,US,GA,KCCO,33.317,-84.767,+0296.0,19990114,20071231,30263
722197,53819,PCHTRE CTY-FALCON FLD ARPT,US,GA,KFFC,33.355,-84.567,+0243.2,20060101,20180403,30269
722197,99999,PEACHTREE CITY FALCO,US,GA,KFFC,33.357,-84.572,+0246.0,19960201,20071231,30269
747806,63809,THOMASTON-UPSON CO AIRPORT,US,GA,KOPN,32.955,-84.264,+0242.6,20060101,20180403,30285
747806,99999,THOMASTON UPSON CO,US,GA,KOPN,32.95,-84.267,+0243.0,20020423,20071231,30286
722195,99999,FULTON CO ARPT BROW,US,GA,KFTY,33.767,-84.517,+0256.0,19730101,20071231,30336
722195,03888,FULTON CO-BROWN FLD ARPT,US,GA,KFTY,33.779,-84.521,+0256.0,20060101,20180403,30336
999999,13874,ATLANTA HARTSFIELD INTL AP,US,GA,KATL,33.63,-84.442,+0312.7,19450101,19721231,30337
722190,13874,HARTSFIELD-JACKSON ATLANTA IN,US,GA,KATL,33.63,-84.442,+0307.9,19730101,20180403,30337
999999,93830,ATLANTA NAS,US,GA,NCQ,33.867,-84.3,+0302.1,19450201,19590225,30341
722196,99999,DEKALB PEACHTREE,US,GA,KPDK,33.867,-84.3,+0306.0,19810801,20071231,30341
722196,53863,DEKALB-PEACHTREE AIRPORT,US,GA,KPDK,33.875,-84.302,+0305.4,20060101,20180403,30341
720951,99999,EMANUEL CO,US,GA,KSBO,32.609,-82.37,+0100.0,20110704,20180322,30401
720951,00330,EAST GEORGIA REGIONAL AIRPORT,US,GA,KSBO,32.609,-82.37,+0100.3,20151209,20180403,30401
722691,99999,CLAXTON EVANS CO,US,GA,KCWV,32.195,-81.87,+0034.1,20080107,20180402,30417
722691,00366,CLAXTON EVANS COUNTY AIRPORT,US,GA,KCWV,32.2,-81.87,+0034.1,20130101,20180322,30417
722134,99999,VIDALIA RGNL,US,GA,KVDI,32.2,-82.367,+0084.0,20010705,20071231,30436
722134,63822,VIDALIA REGIONAL AIRPORT,US,GA,KVDI,32.193,-82.372,+0083.5,20060101,20180403,30436
747805,63818,STATESBORO-BULLOCK CO ARPT,US,GA,KTBR,32.483,-81.737,+0057.0,20060101,20180404,30461
747805,99999,STATESBORO BULLOCH,US,GA,KTBR,32.482,-81.733,+0057.0,20020423,20071231,30461
720301,99999,PLANTATION AIRPARK,US,GA,KJYL,32.645,-81.596,+0057.0,20040525,20071231,30467
720301,63846,PLANTATION AIRPARK,US,GA,KJYL,32.646,-81.596,+0057.3,20060101,20180404,30467
722185,99999,LEE GILMER MEM,US,GA,KGVL,34.267,-83.833,+0389.0,19970718,20071231,30501
722185,53838,LEE GILMER MEMORIAL ARPT,US,GA,KGVL,34.272,-83.83,+0388.6,20060101,20180403,30501
720409,99999,BLAIRSVILLE AIRPORT,US,GA,KDZJ,34.85,-83.983,+0582.0,20071228,20180402,30512
749483,00394,JACKSON COUNTY AIRPORT,US,GA,K19A,34.147,-83.561,+0290.2,20171004,20180322,30549
725258,99999,TOCCOA RG LETOURNEAU FLD,US,GA,KTOC,34.594,-83.296,+0303.0,20120607,20180402,30577
725258,00382,TOCCOA RG LETOURNEAU FIELD AI,US,GA,KTOC,34.594,-83.296,+0303.3,20170519,20180208,30577
999999,13873,ATHENS MUNICIPAL ARPT,US,GA,KAHN,33.948,-83.328,+0244.4,19550901,19721231,30605
723110,13873,ATHENS/BEN EPPS AIRPORT,US,GA,KAHN,33.948,-83.328,+0239.3,19730101,20180403,30605
720263,63834,ELBERT CO-PATZ FLD AIRPORT,US,GA,K27A,34.095,-82.816,+0183.8,20171004,20180402,30635
720347,99999,GREENE COUNTY RGNL,US,GA,K3J7,33.6,-83.133,+0206.0,20050427,20071231,30642
720347,63877,GREENE COUNTY REGIONAL AIRPOR,US,GA,K3J7,33.598,-83.139,+0206.4,20060101,20180403,30642
720897,99999,MONROE WALTON CO,US,GA,KD73,33.782,-83.693,+0264.3,20170817,20180402,30655
720294,99999,WASHINGTON WILKES CO,US,GA,KIIY,33.783,-82.817,+0197.0,20040525,20070520,30673
720294,53898,WASHINGTON-WILKES CO ARPT,US,GA,KIIY,33.78,-82.816,+0196.6,20061028,20180403,30673
747809,99999,WINDER BARROW,US,GA,KWDR,33.983,-83.667,+0287.0,20020430,20071231,30680
747809,03832,WINDER-BORROW AIRPORT,US,GA,KWDR,33.983,-83.668,+0287.4,20060101,20180403,30680
722154,99999,DALTON,US,GA,KDNN,34.722,-84.869,+0216.0,19990114,20071231,30721
722154,53885,DALTON MUNICIPAL AIRPORT,US,GA,KDNN,34.722,-84.869,+0216.4,20060101,20180404,30721
720289,63836,THOMSON-MCDUFFIE CO ARPT,US,GA,KHQU,33.53,-82.516,+0151.8,20060101,20180403,30824
720289,99999,THOMSON MCDUFFIE CO,US,GA,KHQU,33.533,-82.517,+0152.0,20040525,20071231,30824
722181,99999,DANIEL FIELD,US,GA,KDNL,33.467,-82.039,+0129.0,19970123,20071231,30904
749081,99999,AUGUSTA/DANIEL FIELD GA,US,GA,DNL,33.466,-82.033,+0134.0,19420703,19430602,30904
722181,13837,DANIEL FIELD AIRPORT,US,GA,KDNL,33.467,-82.039,+0128.9,20060101,20180403,30904
722180,03820,AUGUSTA REGIONAL AT BUSH FIEL,US,GA,KAGS,33.364,-81.963,+0040.2,19480101,20180403,30906
999999,03820,AUGUSTA BUSH FIELD,US,GA,KAGS,33.364,-81.963,+0045.1,19510101,19721231,30906
722217,99999,W H BUD BARRON,US,GA,KDBN,32.564,-82.985,+0094.0,20050628,20071231,31021
722217,63881,W H `BUD` BARRON AIRPORT,US,GA,KDBN,32.564,-82.985,+0094.2,20060101,20180403,31021
720962,99999,HEART OF GEORGIA RGNL,US,GA,KEZM,32.214,-83.128,+0092.7,20111021,20180322,31023
720962,00337,HEART OF GEORGIA REGIONAL AIR,US,GA,KEZM,32.214,-83.128,+0093.3,20130101,20180402,31023
720300,99999,WARNER-ROBINS(NEXRAD),US,GA,KJGX,32.683,-83.35,+0159.0,20051224,20051224,31044
720348,99999,BALDWIN CO,US,GA,KMLJ,33.154,-83.241,+0117.0,20050427,20071231,31061
720348,63886,BALDWIN COUNTY AIRPORT,US,GA,KMLJ,33.154,-83.241,+0117.0,20060101,20180403,31061
722175,99999,ROBINS AFB,US,GA,KWRB,32.633,-83.6,+0090.0,20000101,20071231,31088
722175,13860,ROBINS AFB AIRPORT,US,GA,KWRB,32.633,-83.6,+0089.6,19420807,20180403,31088
999999,03813,MACON MIDDLE GA REGIONAL AP,US,GA,KMCN,32.685,-83.653,+0110.3,19481201,19721231,31216
722170,03813,MIDDLE GEORGIA REGIONAL AIRPO,US,GA,KMCN,32.685,-83.653,+0104.6,19411020,20180403,31216
722090,03875,WRIGHT AAF AIRPORT,US,GA,KLHW,31.883,-81.567,+0013.7,20060103,20180404,31313
722090,99999,FT STEWART/WRIGHT,US,GA,KLHW,31.883,-81.567,+0014.0,19670201,20071231,31313
747804,13824,HUNTER ARMY AIRFIELD,US,GA,KSVN,32.017,-81.133,+0012.5,20060101,20180404,31405
747804,99999,HUNTER AAF,US,GA,KSVN,32.009,-81.146,+0013.0,19440301,20071231,31405
722070,03822,SAVANNAH/HILTON HEAD INTL AIR,US,GA,KSAV,32.131,-81.202,+0014.0,19480101,20180404,31408
999999,03822,SAVANNAH INTL AP,US,GA,KSAV,32.13,-81.21,+0015.5,19650101,19721231,31408
722130,13861,WAYCROSS-WARE CO. AIRPORT,US,GA,KAYS,31.25,-82.4,+0043.3,19421201,20180403,31503
722130,99999,WAYCROSS/WARE CO.,US,GA,KAYS,31.25,-82.4,+0046.0,20001004,20031231,31503
999999,13870,ALMA BACON COUNTY AP,US,GA,KAMG,31.536,-82.507,+0062.8,19490101,19590101,31510
723160,13870,BACON COUNTY AIRPORT,US,GA,KAMG,31.536,-82.507,+0058.8,20100801,20180404,31510
722135,13870,ALMA/BACON CO.,US,GA,KAMG,31.536,-82.507,+0062.8,19730101,20100801,31510
999999,13878,BRUNSWICK MALCOLM MCKINNON AP,US,GA,KSSI,31.152,-81.391,+0007.3,19481201,19550101,31522
722137,13878,MALCOLM MC KINNON AIRPORT,US,GA,KSSI,31.152,-81.391,+0004.9,19730101,20180403,31522
999999,93836,BRUNSWICK GLYNN CO A,US,GA,NEA,31.25,-81.467,+0009.1,19450201,19740731,31525
722136,53883,BRUNSWICK GOLDEN ISLES APT,US,GA,KBQK,31.259,-81.466,+0007.9,20060101,20180403,31525
722136,99999,BRUNSWICK GOLDEN IS,US,GA,KBQK,31.25,-81.467,+0008.0,19730101,20071231,31525
722062,99999,DOUGLAS MUNI,US,GA,KDQH,31.478,-82.86,+0078.0,20040510,20071231,31533
722062,63842,DOUGLAS MUNICIPAL AIRPORT,US,GA,KDQH,31.477,-82.861,+0078.3,20060101,20180403,31533
721035,00352,HAZLEHURST AIRPORT,US,GA,KAZE,31.885,-82.647,+0078.0,20130101,20180402,31539
721035,99999,HAZLEHURST,US,GA,KAZE,31.885,-82.647,+0077.7,20120705,20180322,31539
720671,00248,JESUP WAYNE COUNTY AIRPORT,US,GA,KJES,31.554,-81.883,+0033.2,20151209,20180403,31546
720671,99999,JESUP WAYNE CO,US,GA,KJES,31.554,-81.883,+0032.9,20100111,20171126,31546
999999,93845,VALDOSTA WB AIRPORT,US,GA,KVLD,30.783,-83.277,+0060.4,19720101,19721231,31601
722166,99999,VALDOSTA RGNL,US,GA,KVLD,30.783,-83.267,+0062.0,20000101,20031231,31601
722166,93845,VALDOSTA REGIONAL AIRPORT,US,GA,KVLD,30.783,-83.277,+0060.4,19480101,20180404,31601
720392,99999,HOMERVILLE,US,GA,KHOE,31.056,-82.774,+0056.7,20070521,20180402,31634
720392,00128,HOMERVILLE AIRPORT,US,GA,KHOE,31.056,-82.767,+0057.3,20130101,20180303,31634
747810,99999,MOODY AFB/VALDOSTA,US,GA,KVAD,30.967,-83.2,+0071.0,19420401,20071231,31699
747810,13857,MOODY AFB AIRPORT,US,GA,KVAD,30.967,-83.2,+0071.0,20060103,20180403,31699
722160,99999,ALBANY MUNICIPAL,US,GA,KABY,31.533,-84.183,+0059.0,20000101,20031231,31701
999999,13869,ALBANY MUNICIPAL AP,US,GA,KABY,31.536,-84.194,+0058.8,19480101,19550101,31701
722160,13869,SW GEORGIA REGIONAL ARPT,US,GA,KABY,31.536,-84.194,+0057.9,19730101,20180403,31701
720948,99999,SOUTHER FLD,US,GA,KACJ,32.111,-84.189,+0143.6,20110711,20180402,31709
720948,00328,JIMMY CARTER REGIONAL AIRPORT,US,GA,KACJ,32.11,-84.189,+0142.7,20130101,20180303,31709
721033,00350,FITZGERALD MUNICIPAL AIRPORT,US,GA,KFZG,31.684,-83.27,+0111.3,20130101,20180402,31750
721033,99999,FITZGERALD MUNI,US,GA,KFZG,31.684,-83.27,+0111.3,20120620,20180322,31750
720738,00267,THOMASVILLE REGIONAL AIRPORT,US,GA,KTVI,30.902,-83.881,+0080.2,20150531,20180322,31757
720738,99999,THOMASVILLE RGNL,US,GA,KTVI,30.902,-83.881,+0080.5,20100621,20180402,31757
749088,99999,THOMASVILLE GEORGIA AAF,US,GA,TVI,30.9,-83.85,+0074.0,19440216,20100621,31757
722147,99999,MOULTRIE MUNI,US,GA,KMGR,31.085,-83.803,+0090.0,20040525,20071231,31788
722147,53817,MOULTRIE MUNICIPAL AIRPORT,US,GA,KMGR,31.083,-83.8,+0086.3,20060101,20180403,31788
720712,00250,HENRY TIFT MYERS AIRPORT,US,GA,KTMA,31.429,-83.489,+0108.2,20130101,20180403,31794
999999,03874,FORT BENNING MCKENNA,US,GA,MKF,32.367,-84.8,+0134.1,19640302,19650722,31805
722250,99999,FORT BENNING,US,GA,KLSF,32.333,-85,+0071.0,20000101,20071231,31905
999999,93842,COLUMBUS MUSCOGEE COUNTY ARPT,US,GA,KCSG,32.516,-84.942,+0120.1,19530101,19711231,31909
722255,93842,COLUMBUS METRO AIRPORT,US,GA,KCSG,32.516,-84.942,+0119.5,19480101,20180403,31909
720946,99999,FERNANDINA BEACH MUNI,US,FL,KFHB,30.612,-81.461,+0004.9,20110512,20180402,32034
720946,00326,FERNANDINA BEACH MUNICIPAL AI,US,FL,KFHB,30.617,-81.467,+0005.2,20150224,20180322,32034
749048,99999,KEYSTONE AIRPARK,US,FL,K42J,29.845,-82.048,+0059.7,19431210,20180322,32091
691804,99999,CAMP BLANDING,US,FL,KQLG,29.967,-81.983,+0059.0,19860119,20100430,32091
720399,99999,CAMP BLANDING AAF,US,FL,K2CB,29.952,-81.98,+0059.7,20080602,20141003,32091
749048,00415,KEYSTONE AIRPARK,US,FL,K42J,29.845,-82.048,+0060.1,20130101,20180402,32091
722212,92814,ST AUGUSTINE AIRPORT,US,FL,KSGJ,29.959,-81.34,+0003.1,20060101,20180403,32095
722212,99999,ST AUGUSTINE,US,FL,KSGJ,29.967,-81.333,+0003.0,19970123,20071231,32095
720672,00485,FLAGLER COUNTY AIRPORT,US,FL,KXFL,29.467,-81.206,+0010.1,20130101,20141113,32110
720672,99999,FLAGLER CO,US,FL,KXFL,29.467,-81.206,+0010.1,20091103,20121231,32110
747870,12834,DAYTONA BEACH INTERNATIONAL A,US,FL,KDAB,29.183,-81.048,+0009.5,20100801,20180404,32114
999999,12834,DAYTONA BEACH REGIONAL ARPT,US,FL,KDAB,29.183,-81.048,+0012.5,19480101,19721231,32114
722056,12834,DAYTONA BEACH INTL,US,FL,KDAB,29.183,-81.048,+0012.5,19730101,20100801,32114
722012,92817,THE VILLAGES,US,FL,KVVG,28.95,-81.967,+0027.1,20060101,20180215,32159
722361,99999,NEW SMYRNA BEACH MUN,US,FL,KEVB,29.056,-80.948,+0003.0,20041130,20071231,32168
722361,92808,NEW SMYRNA BEACH MUNICIPAL AI,US,FL,KEVB,29.054,-80.948,+0003.1,20060101,20180403,32168
722341,99999,ORMOND BEACH MUNI,US,FL,KOMN,29.3,-81.117,+0009.0,20041005,20071231,32174
722341,92822,ORMOND BEACH MUNICIPAL AIRPOR,US,FL,KOMN,29.296,-81.113,+0008.8,20060101,20180403,32174
999999,13889,JACKSONVILLE IMESON,US,FL,KJAX,30.495,-81.694,+0009.8,19660101,19721231,32218
722060,13889,JACKSONVILLE  INTERNATIONAL A,US,FL,KJAX,30.495,-81.694,+0007.9,19480101,20180403,32218
999999,63890,WHITEHOUSE NAVAL OUTLYING FIE,US,FL,KNEN,30.35,-81.883,+0030.2,20070601,20180402,32220
722067,99999,CECIL FLD,US,FL,KVQQ,30.219,-81.877,+0025.0,20011113,20071231,32221
999999,93832,CECIL FIELD NAS,US,FL,KNZC,30.217,-81.883,+0025.3,19470301,20001101,32221
722067,93832,CECIL FLD,US,FL,KNZC,30.217,-81.883,+0024.4,19730101,19991231,32221
999999,53894,HERLONG AIRPORT,US,FL,KHEG,30.278,-81.806,+0026.5,20020602,20041231,32221
722067,63823,CECIL FIELD AIRPORT,US,FL,KVQQ,30.219,-81.876,+0024.7,20060101,20180404,32221
722068,53860,JACKSONVILLE/CRAIG,US,FL,KCRG,30.336,-81.515,+0012.5,20040101,20100801,32225
747820,53860,CRAIG MUNICIPAL AIRPORT,US,FL,KCRG,30.336,-81.515,+0012.5,20100801,20180404,32225
722066,03853,MAYPORT NAF,US,FL,KNRB,30.4,-81.417,+0004.9,19730101,20180403,32227
999999,03853,MAYPORT NS,US,FL,KNRB,30.4,-81.417,+0004.3,19550705,19721231,32227
722065,93837,JACKSONVILLE NAS,US,FL,KNIP,30.233,-81.667,+0006.1,19730101,20180403,32244
999999,93837,JACKSONVILLE NAS,US,FL,KNIP,30.233,-81.667,+0006.7,19450101,19721231,32244
999999,93805,TALLAHASSEE DALE MABRY FIELD,US,FL,KTLH,30.393,-84.353,+0020.7,19480101,19721231,32310
722140,93805,TALLAHASSEE REGIONAL AIRPORT,US,FL,KTLH,30.393,-84.353,+0016.8,19420501,20180404,32310
999999,12832,APALACHICOLA,US,FL,KAAF,29.733,-85.033,+0005.8,19480101,19490101,32320
722200,99999,APALACHICOLA MUNI,US,FL,KAAF,29.733,-85.033,+0006.0,20000101,20031231,32320
722200,12832,APALACHICOLA MUNI AIRPORT,US,FL,KAAF,29.733,-85.033,+0005.8,19450101,20180403,32320
749084,99999,PERRY FLORIDA AAF,US,FL,PRF,30.066,-83.583,+0015.0,19440416,19450930,32348
722224,53862,PERRY FOLEY,US,FL,K40J,30.072,-83.574,+0013.7,20060101,20180404,32348
747750,99999,TYNDALL AFB,US,FL,KPAM,30.067,-85.583,+0005.0,20000101,20071231,32403
720964,99999,TYNDALL DRONE RUNWAY,US,FL,KTDR,30.033,-85.533,+0004.6,20120125,20180207,32403
720964,00338,TYNDALL DRONE RUNWAY,US,FL,KTDR,30.033,-85.533,+0005.2,20151208,20180403,32403
747750,13846,TYNDALL AFB AIRPORT,US,FL,KPAM,30.067,-85.583,+0005.2,19420319,20180404,32403
722245,99999,PANAMA CITY BAY CO,US,FL,KPFN,30.2,-85.683,+0006.0,19730101,20071231,32405
722245,03882,PANAMA CITY-BAY CO. INT AP,US,FL,KPFN,30.212,-85.683,+0006.4,20060101,20100603,32405
720735,73805,NORTHWEST FLORIDA BEACHES INT,US,FL,KECP,30.349,-85.788,+0017.4,20110301,20180404,32409
999999,73805,NORTHWEST FLORIDA BEACHES INT,US,FL,KECP,30.349,-85.788,+0021.0,20100501,20110301,32409
720735,99999,NW PANAMA CITY INTL,US,FL,KECP,30.358,-85.799,+0021.0,20100523,20110228,32409
747760,99999,MARIANNA MUNI,US,FL,KMAI,30.938,-85.182,+0034.0,20010811,20071231,32445
749087,99999,MARIANNA FLORIDA AAF,US,FL,MAI,30.833,-85.2,+0033.0,19421201,19451116,32446
747760,03818,MARIANNA MUNICIPAL AIRPORT,US,FL,KMAI,30.836,-85.184,+0034.4,19970602,20180404,32446
999999,03818,MARIANNA MUNICIPAL AP,US,FL,KMAI,30.836,-85.184,+0034.4,19500101,19550101,32446
722223,13899,PENSACOLA REGIONAL AIRPORT,US,FL,KPNS,30.478,-87.187,+0034.1,19900228,20180403,32504
722221,13899,PENSACOLA REGIONAL AP,US,FL,KPNS,30.478,-87.187,+0036.0,19850531,19900228,32504
999999,13899,PENSACOLA REGIONAL AP,US,FL,KPNS,30.478,-87.187,+0036.0,19481231,19721231,32504
722220,13899,PENSACOLA,US,FL,KPNS,30.478,-87.187,+0036.0,19730101,19850531,32504
999999,93828,PENSACOLA CORRY FLD NAAS,US,FL,NQS,30.4,-87.283,+0011.0,19480601,19580523,32507
722225,03855,PENSACOLA NAS,US,FL,KNPA,30.35,-87.317,+0008.5,19450201,20180404,32508
999999,93829,PENSACOLA CHEVALIER FLD NAS,US,FL,CVD,30.35,-87.267,+0021.0,19450201,19550601,32508
999999,03855,PENSACOLA FOREST SHERMAN NAS,US,FL,KNPA,30.35,-87.317,+0009.1,19590101,19721231,32508
999999,03840,PENSACOLA ELLYSON FLD NAAS,US,FL,NDP,30.533,-87.2,+0039.9,19520102,19731221,32514
999999,03815,PENSACOLA SAUFLEY NAS,US,FL,NUN,30.483,-87.35,+0028.0,19481122,19760331,32526
722215,13884,BOB SIKES AIRPORT,US,FL,KCEW,30.78,-86.523,+0057.9,19730101,20180404,32539
999999,13884,CRESTVIEW BOB SIKES AP,US,FL,KCEW,30.78,-86.523,+0056.4,19480101,19550101,32539
722069,99999,DESTIN FT. WALTON,US,FL,KDTS,30.4,-86.471,+0007.0,19970902,20071231,32541
722069,53853,DESTIN-FT.WALTON BEACH APT,US,FL,KDTS,30.4,-86.472,+0006.7,20060101,20180403,32541
722246,99999,DUKE FLD,US,FL,KEGI,30.65,-86.523,+0059.4,20000103,20071231,32542
722246,03844,EGLIN AF AUX NR 3 D,US,FL,KEGI,30.65,-86.517,+0058.0,19490908,20180403,32542
747770,03852,HURLBURT FIELD AIRPORT,US,FL,KHRT,30.417,-86.683,+0011.6,19550705,20180403,32544
747770,99999,HURLBURT FIELD (AF),US,FL,KHRT,30.417,-86.683,+0011.0,20000101,20071231,32544
720383,53847,WHITING FIELD NAVAL AIR STATI,US,FL,KNDZ,30.704,-87.023,+0054.3,20070116,20180404,32570
999999,93841,WHITING FIELD NAS,US,FL,KNSE,30.717,-87.017,+0061.0,19450201,19721231,32570
722226,93841,WHITING FIELD NAVAL AIR STATI,US,FL,KNSE,30.717,-87.017,+0060.7,19730101,20180404,32570
722210,99999,VALPARAISO/EGLIN AF,US,FL,KVPS,30.483,-86.517,+0029.0,19720101,20071231,32580
722210,13858,EGLIN AFB AIRPORT,US,FL,KVPS,30.483,-86.517,+0026.5,19380910,20180403,32580
747560,12816,GAINESVILLE REGIONAL AIRPORT,US,FL,KGNV,29.692,-82.276,+0037.5,20100801,20180404,32609
722146,12816,GAINESVILLE RGNL,US,FL,KGNV,29.692,-82.276,+0050.3,19431101,20100801,32609
999999,12833,CROSS CITY AIRPORT,US,FL,KCTY,29.633,-83.105,+0012.8,19490101,19550101,32628
722120,12833,CROSS CITY AIRPORT,US,FL,KCTY,29.633,-83.105,+0011.6,19431219,20180404,32628
720904,00299,DELAND MUNICIPAL AIRPORT SIDN,US,FL,KDED,29.067,-81.283,+0024.1,20151209,20180212,32724
720904,99999,DELAND MUNI SIDNEY H TAYLOR F,US,FL,KDED,29.067,-81.284,+0024.1,20120209,20180402,32724
999999,12854,SANFORD AIRPORT,US,FL,KSFB,28.78,-81.244,+0016.8,19450401,19680517,32773
722057,99999,ORLANDO SANFORD,US,FL,KSFB,28.767,-81.233,+0017.0,20000101,20031231,32773
722057,12854,ORLANDO SANFORD AIRPORT,US,FL,KSFB,28.78,-81.244,+0016.8,19730101,20180403,32773
722046,12898,SPACE COAST REGIONAL AIRPORT,US,FL,KTIX,28.517,-80.8,+0010.7,20060101,20180403,32780
722046,99999,SPACE COAST RGNL,US,FL,KTIX,28.517,-80.8,+0010.0,19730420,20071231,32780
722053,99999,EXECUTIVE,US,FL,KORL,28.55,-81.333,+0034.0,20000101,20031231,32803
999999,12841,ORLANDO MUNICIPAL ARPT,US,FL,KORL,28.545,-81.333,+0034.1,19500101,19721231,32803
722053,12841,EXECUTIVE AIRPORT,US,FL,KORL,28.545,-81.333,+0032.9,19900208,20180403,32803
722050,12815,ORLANDO INTERNATIONAL AIRPORT,US,FL,KMCO,28.434,-81.325,+0027.4,19520507,20180403,32827
999999,12815,PINECASTLE AAF,US,FL,KMCO,28.434,-81.325,+0032.3,19710101,19710101,32827
722040,12838,MELBOURNE INTL AP,US,FL,KMLB,28.101,-80.644,+0008.2,19741113,20180403,32901
722040,99999,MELBOURNE REGIONAL,US,FL,KMLB,28.1,-80.65,+0011.0,20000101,20031231,32901
999999,12838,MELBOURNE REGIONAL AP,US,FL,KMLB,28.101,-80.644,+0008.2,19480101,19550101,32901
747950,99999,PATRICK AFB/COCOA B,US,FL,KCOF,28.233,-80.6,+0003.0,20000102,20071231,32925
747950,12867,PATRICK AFB AIRPORT,US,FL,KCOF,28.233,-80.6,+0002.4,19450301,20180403,32925
747930,99999,VERO BEACH MUNI,US,FL,KVRB,27.65,-80.417,+0012.0,20010811,20100731,32960
747930,12843,VERO BEACH MUNICIPAL AIRPORT,US,FL,KVRB,27.651,-80.42,+0008.5,20100801,20180403,32960
722024,99999,OPA LOCKA,US,FL,KOPF,25.9,-80.283,+0002.0,19621028,20071231,33014
722024,12882,OPA LOCKA AIRPORT,US,FL,KOPF,25.907,-80.28,+0003.1,20060101,20180403,33014
722037,99999,NORTH PERRY,US,FL,KHWO,26,-80.233,+0003.0,19990904,20071231,33024
722037,92809,NORTH PERRY AIRPORT,US,FL,KHWO,25.999,-80.241,+0002.7,20060101,20180403,33024
722026,99999,HOMESTEAD ARB,US,FL,KHST,25.483,-80.383,+0002.0,20000101,20071231,33033
722026,12826,HOMESTEAD AFB AIRPORT,US,FL,KHST,25.483,-80.383,+0001.5,19430201,20180403,33033
999999,12826,HOMESTEAD AAF,US,FL,KHST,25.483,-80.383,+0002.1,19710101,19710101,33033
722010,12836,KEY WEST INTERNATIONAL AIRPOR,US,FL,KEYW,24.555,-81.752,+0001.2,19730101,20180403,33040
722015,12850,KEY WEST NAS,US,FL,KNQX,24.583,-81.683,+0001.8,19730101,20180403,33040
999999,12836,KEY WEST INTL ARPT,US,FL,KEYW,24.555,-81.752,+0006.4,19480101,19721231,33040
722013,99999,KEY WEST / BOCA CHICA(NEXRAD),US,FL,KBYX,24.6,-81.7,+0003.0,19880105,19880704,33040
999999,12850,KEY WEST NAS,US,FL,KNQX,24.583,-81.683,+0007.3,19450301,19721231,33040
722016,99999,FLORIDA KEYS MARATHO,US,FL,KMTH,24.733,-81.05,+0002.0,19880318,20071231,33050
722016,12896,THE FL KEYS MARATHON ARPT,US,FL,KMTH,24.726,-81.052,+0002.4,20060101,20180403,33050
722049,99999,POMPANO BEACH AIRPAR,US,FL,KPMP,26.25,-80.117,+0006.0,19880621,20071231,33060
722049,92805,POMPANO BEACH AIRPARK ARPT,US,FL,KPMP,26.25,-80.108,+0006.4,20060101,20180403,33060
722020,12839,MIAMI INTERNATIONAL AIRPORT,US,FL,KMIA,25.788,-80.317,+0008.8,19730101,20180403,33126
999999,12839,MIAMI INTL AP,US,FL,KMIA,25.791,-80.316,+0009.1,19480101,19721231,33126
722029,99999,KENDALL TAMIAMI EXEC,US,FL,KTMB,25.65,-80.433,+0002.0,19760620,20071231,33186
722029,12888,KENDALL-TAMIAMI EXEC ARPT,US,FL,KTMB,25.648,-80.433,+0003.1,20060101,20180403,33186
722039,99999,FORT LAUDERDALE EXEC,US,FL,KFXE,26.2,-80.167,+0004.0,19840908,20071231,33309
722039,12885,FT LAUDER EXECUTIVE ARPT,US,FL,KFXE,26.197,-80.171,+0004.3,20060101,20180403,33309
722025,12849,FORT LAUDERDALE HOL,US,FL,KFLL,26.072,-80.154,+0003.4,19730101,20100731,33315
999999,12849,FORT LAUDERDALE HOLLYWOOD INT,US,FL,KFLL,26.072,-80.154,+0003.4,19460101,19461011,33315
747830,12849,FT LAUD/HOLLYWOOD INTL APT,US,FL,KFLL,26.079,-80.162,+0003.4,20100801,20180403,33315
722030,12844,PALM BEACH INTERNATIONAL AIRP,US,FL,KPBI,26.685,-80.099,+0005.8,19430206,20180403,33415
999999,12844,WEST PALM BEACH INTL ARPT,US,FL,KPBI,26.685,-80.099,+0006.4,19480101,19751231,33415
749044,99999,BOCA RATON FLORIDA AAF,US,FL,BCT,26.366,-80.1,+0005.0,19421201,19471130,33431
722022,12803,BOCA RATON AIRPORT,US,FL,KBCT,26.378,-80.108,+0004.0,20060101,20180403,33431
722022,99999,BOCA RATON,US,FL,KBCT,26.378,-80.108,+0004.0,20020423,20071229,33431
721042,99999,ZEPHYRHILLS MUNI,US,FL,KZPH,28.228,-82.156,+0027.4,20120813,20180402,33542
721042,00486,ZEPHYRHILLS MUNICIPAL AIRPORT,US,FL,KZPH,28.228,-82.156,+0027.4,20130101,20180322,33542
999999,92802,TAMPA BAY EXECUTIVE,US,FL,KRRF,28.188,-82.626,+0012.5,19960702,20041231,33556
720373,92824,PLANT CITY MUNICIPAL AIRPORT,US,FL,KPCM,28,-82.164,+0046.9,20061024,20180404,33566
722100,99999,TAMPA BAY AREA  FL.,US,FL,KTBW,27.7,-82.4,+0014.8,19760220,20060401,33570
720374,92825,PETER O KNIGHT AIRPORT,US,FL,KTPF,27.916,-82.449,+0002.4,20061024,20180403,33606
722110,12842,TAMPA INTERNATIONAL AIRPORT,US,FL,KTPA,27.962,-82.54,+0005.8,19400801,20180403,33607
999999,12842,TAMPA INTL ARPT,US,FL,KTPA,27.962,-82.54,+0003.4,19480101,19721231,33607
722021,92816,VANDENBERG AIRPORT,US,FL,KVDF,28.014,-82.345,+0006.7,20060101,20180404,33610
747880,99999,MACDILL AFB/TAMPA,US,FL,KMCF,27.85,-82.5,+0004.0,20000101,20071231,33621
999999,12810,MACDILL AAF,US,FL,KMCF,27.85,-82.517,+0004.3,19710101,19710101,33621
747880,12810,MAC DILL AFB AIRPORT,US,FL,KMCF,27.85,-82.517,+0004.3,19410501,20180403,33621
724742,99999,VANDENBERG,US,FL,KX16,28.02,-82.35,+0007.0,20061010,20061012,33637
722021,99999,VANDENBERG,US,FL,KVDF,28.017,-82.35,+0007.0,20020424,20071231,33637
722104,92806,ALBERT WHITTED AIRPORT,US,FL,KSPG,27.765,-82.628,+0002.4,19860101,20180403,33701
722104,99999,ALBERT WHITTED,US,FL,KSPG,27.767,-82.633,+0002.0,20000101,20031231,33701
722116,99999,ST PETERSBURG CLEAR,US,FL,KPIE,27.9,-82.683,+0003.0,19730101,20071231,33762
722116,12873,ST PETE-CLWTR INTL AIRPORT,US,FL,KPIE,27.911,-82.688,+0003.4,20060101,20180403,33762
722119,99999,LAKELAND LINDER RGN,US,FL,KLAL,27.983,-82.017,+0043.0,19420801,20071231,33811
722119,12883,LAKELAND LINDER REGIONAL AIRP,US,FL,KLAL,28,-82.05,+0043.3,20060101,20180403,33811
747960,12804,AVON PARK GUNNERY R,US,FL,KAGR,27.65,-81.333,+0020.0,19431201,19930929,33825
722123,99999,BARTOW MUNI,US,FL,KBOW,27.95,-81.783,+0038.0,19900208,20071231,33830
722123,12809,BARTOW MUNICIPAL AIRPORT,US,FL,KBOW,27.95,-81.783,+0038.1,20060101,20180403,33830
749045,99999,SEBRING RGNL,US,FL,KSEF,27.456,-81.342,+0019.2,19420401,20180402,33876
722017,12876,WINTER HAVEN,US,FL,KGIF,28.062,-81.754,+0044.5,20060101,20100801,33881
747931,12876,WINTER HAVEN'S GILBERT APT,US,FL,KGIF,28.062,-81.754,+0044.5,20100801,20180403,33881
722017,99999,WINTER HAVEN,US,FL,KGIF,28.05,-81.75,+0044.0,19990114,20010516,33881
999999,12835,FORT MYERS PAGE FIELD,US,FL,KFMY,26.585,-81.861,+0005.5,19480101,19751231,33907
722106,12835,PAGE FIELD AIRPORT,US,FL,KFMY,26.585,-81.861,+0004.6,19430101,20180403,33907
722108,12894,SW FLORIDA INTN AIRPORT,US,FL,KRSW,26.536,-81.755,+0009.5,20060101,20180403,33913
722108,99999,SOUTHWEST FLORIDA I,US,FL,KRSW,26.533,-81.75,+0009.0,19830723,20071231,33913
722034,12812,CHARLOTTE COUNTY AIRPORT,US,FL,KPGD,26.917,-81.991,+0007.6,20060101,20180403,33982
722034,99999,CHARLOTTE CO,US,FL,KPGD,26.92,-81.983,+0008.0,19990114,20071231,33982
749046,99999,PUNTA GORDA FLORIDA AAF,US,FL,PGD,26.916,-81.983,+0009.0,19440104,19450919,33982
722038,99999,NAPLES MUNI,US,FL,KAPF,26.153,-81.775,+0002.0,19431229,19981231,34104
722038,12897,NAPLES MUNICIPAL AIRPORT,US,FL,KAPF,26.155,-81.775,+0002.7,19990101,20180403,34104
721041,99999,MARCO ISLAND,US,FL,KMKY,25.995,-81.673,+0001.5,20120726,20180402,34114
722115,12871,SARASOTA/BRADENTON INTL AP,US,FL,KSRQ,27.401,-82.559,+0008.5,20060101,20180403,34243
722115,99999,SARASOTA BRADENTON,US,FL,KSRQ,27.383,-82.55,+0009.0,19730101,20071231,34243
722118,00482,VENICE MUNICIPAL AIRPORT,US,FL,KVNC,27.072,-82.44,+0005.8,20170519,20180322,34285
722118,99999,VENICE MUNI,US,FL,KVNC,27.072,-82.44,+0005.5,19440127,20180402,34285
720655,00235,CRYSTAL RIVER AIRPORT,US,FL,KCGC,28.867,-82.567,+0003.1,20130101,20180403,34429
720655,99999,CRYSTAL RIVER,US,FL,KCGC,28.867,-82.571,+0002.7,20090812,20180322,34429
724737,00377,INVERNESS AIRPORT,US,FL,KINF,28.817,-82.317,+0015.2,20130101,20180322,34452
724737,99999,INVERNESS MUNI AIRPORT,US,FL,KINF,28.804,-82.318,+0020.0,20090812,20180402,34452
722055,12861,OCALA INTERNATIONAL AIRPORT-J,US,FL,KOCF,29.167,-82.233,+0026.5,20060101,20180404,34474
722055,99999,OCALA INTL J TAYLOR,US,FL,KOCF,29.167,-82.217,+0027.0,19440107,20071231,34474
722012,99999,THE VILLAGES,US,FL,KVVG,28.967,-81.967,+0027.0,20020423,20071231,34491
749049,99999,BROOKSVILLE FLORIDA AAF,US,FL,BKV,28.483,-82.449,+0023.0,19431207,19440314,34604
722014,99999,HERNANDO CO,US,FL,KBKV,28.474,-82.455,+0023.0,19990114,20071231,34604
722014,12818,HERNANDO COUNTY AIRPORT,US,FL,KBKV,28.474,-82.454,+0023.5,20060101,20180404,34604
722011,92813,KISSIMMEE GATEWAY AIRPORT,US,FL,KISM,28.29,-81.437,+0025.0,20060101,20180403,34741
749047,99999,KISSIMMEE FLORIDA AAF,US,FL,ISM,28.283,-81.416,+0025.0,19440301,19450811,34741
722011,99999,KISSIMMEE GATEWAY,US,FL,KISM,28.29,-81.437,+0025.0,20020423,20071231,34741
749050,99999,LEESBURG FLORIDA AAF,US,FL,LEE,28.8,-81.8,+0023.0,19431221,19440312,34748
722213,99999,LEESBURG RGNL,US,FL,KLEE,28.823,-81.809,+0023.0,19970123,20071231,34788
722213,12819,LEESBURG REGIONAL AIRPORT,US,FL,KLEE,28.821,-81.81,+0023.5,20060101,20180403,34788
722103,99999,ST LUCIE CO INTL,US,FL,KFPR,27.483,-80.367,+0007.0,19880114,20071231,34946
722103,12895,ST LUCIE COUNTY INTL ARPT,US,FL,KFPR,27.498,-80.377,+0007.3,20060101,20180403,34946
722261,99999,OKEECHOBEE CO,US,FL,KOBE,27.263,-80.85,+0010.4,20070116,20180322,34972
722261,00360,OKEECHOBEE COUNTY AIRPORT,US,FL,KOBE,27.267,-80.85,+0010.1,20150224,20180403,34972
722189,99999,WITHAM FLD,US,FL,KSUA,27.183,-80.217,+0005.0,20040525,20071231,34996
722189,92815,WITHAM FIELD AIRPORT,US,FL,KSUA,27.182,-80.221,+0005.5,20060101,20180403,34996
999999,13829,FORT BENNING LAWSON,US,GA,KLSF,32.35,-85,+0070.7,19710101,19710101,36856
722250,13829,LAWSON AAF AIRPORT,US,GA,KLSF,32.35,-85,+0070.7,19390501,20180404,36856
999999,53882,KNOXVILLE ISLAND AP,US,GA,KBGE,30.983,-84.633,+0043.0,20020602,20041231,39817
749078,99999,BAINBRIDGE/AAF GA,US,GA,BGE,30.983,-84.633,+0040.0,19420917,19450108,39817
720268,99999,DECATUR CO INDUSTRI,US,GA,KBGE,30.967,-84.633,+0043.0,20040525,20071231,39817
720268,53882,DCATR CO INDUS AIRPK ARPT,US,GA,KBGE,30.983,-84.633,+0043.0,20060101,20180403,39817
720257,99999,EARLY CO,US,GA,KBIJ,31.4,-84.9,+0065.0,20040525,20071231,39823
720257,63835,EARLY COUNTY AIRPORT,US,GA,KBIJ,31.397,-84.895,+0065.2,20060101,20180404,39823
999999,04728,NIAGARA FALLS,US,NY,E4C8,37.864,-103.823,+1336.9,19520301,19540121,81067
999999,23174,LOS ANGELES MUNICIPAL ARPT,US,CA,KLAX,33.938,-118.389,+0099.4,19470101,19721231,90045
722950,23174,LOS ANGELES INTERNATIONAL AIR,US,CA,KLAX,33.938,-118.389,+0029.6,19440101,20180403,90045
999999,93134,LOS ANGELES DOWNTOWN USC CAMP,US,CA,KCQT,34.024,-118.291,+0056.4,19990701,19991231,90089
722874,93134,DOWNTOWN L.A./USC CAMPUS,US,CA,KCQT,34.024,-118.291,+0054.6,20000101,20180403,90089
722956,99999,JACK NORTHROP FLD H,US,CA,KHHR,33.917,-118.333,+0020.0,19730101,20071231,90250
722956,03167,NRTHORP FLD/HATHRN MUNI AP,US,CA,KHHR,33.923,-118.334,+0019.2,20060101,20180403,90250
722885,99999,SANTA MONICA MUNI,US,CA,KSMO,34.017,-118.45,+0053.0,19730101,20071231,90405
722885,93197,SANTA MONICA MUNI AIRPORT,US,CA,KSMO,34.016,-118.451,+0053.0,20060101,20180403,90405
722955,99999,ZAMPERINI FLD,US,CA,KTOA,33.803,-118.34,+0031.4,20000101,20071231,90505
722955,03174,ZAMPERINI FIELD AIRPORT,US,CA,KTOA,33.803,-118.34,+0029.6,20060101,20180403,90505
722955,03122,TORRANCE AIRPORT,US,CA,KTOA,33.802,-118.342,+0027.4,19440601,19991231,90505
722976,99999,FULLERTON MUNICIPAL,US,CA,KFUL,33.867,-117.983,+0029.0,19730101,20071231,90621
722920,23191,CATALINA AIRPORT,US,CA,KAVX,33.405,-118.416,+0488.3,19430612,20180403,90704
722920,99999,AVALON/CATALINA,US,CA,KAVX,33.4,-118.417,+0488.0,20000613,20031231,90704
999999,23191,SANTA CATALINA BUFFALO SPRING,US,CA,KAVX,33.405,-118.416,+0488.3,19480101,19680323,90704
722975,93106,LOS ALAMITOS AAF,US,CA,KSLI,33.783,-118.05,+0011.0,19820907,19991231,90720
722975,99999,LOS ALAMITOS AAF,US,CA,KSLI,33.783,-118.05,+0011.0,20000101,20071231,90720
999999,93106,LOS ALAMITOS,US,CA,KSLI,33.783,-118.05,+0011.0,19450401,19710731,90720
722975,53141,LOS ALAMITOS AAF AIRPORT,US,CA,KSLI,33.79,-118.052,+0010.7,20060101,20180403,90720
722979,03157,LONG BEACH NAVAL STN,US,CA,NWF,33.75,-118.233,+0004.3,19730102,19731228,90802
999999,03157,LONG BEACH NS,US,CA,NWF,33.75,-118.233,+0004.3,19720601,19721229,90802
722974,99999,LONG BEACH,US,CA,K5L8,33.767,-118.167,+0003.0,19770208,19891127,90803
722970,23129,LONG BEACH / DAUGHERTY FIELD,US,CA,KLGB,33.812,-118.146,+0009.5,19430101,20180403,90806
745057,99999,WHITEMAN,US,CA,KWHP,34.267,-118.417,+0306.0,19990114,20071231,91331
745057,53130,WHITMAN AIRPORT,US,CA,KWHP,34.259,-118.413,+0305.7,20060101,20180403,91331
720046,99999,NEWHALL,US,CA,K3A6,34.37,-118.57,+0427.0,20040224,20110905,91381
722886,99999,VAN NUYS,US,CA,KVNY,34.21,-118.49,+0244.0,20000101,20031231,91406
722886,23130,VAN NUYS AIRPORT,US,CA,KVNY,34.21,-118.489,+0234.7,19421211,20180403,91406
722880,23152,BURBANK-GLENDALE-PASA ARPT,US,CA,KBUR,34.201,-118.358,+0236.2,19430601,20180403,91505
999999,23152,HOLLYWOOD BURBANK ARPT,US,CA,KBUR,34.201,-118.358,+0223.1,19480101,19690101,91505
722880,99999,BURBANK/GLENDALE,US,CA,KBUR,34.2,-118.35,+0236.0,20000101,20031231,91505
722899,99999,CHINO,US,CA,KCNO,33.967,-117.633,+0199.0,19770705,20071231,91708
722899,03179,CHINO AIRPORT,US,CA,KCNO,33.975,-117.636,+0198.1,20060101,20180403,91710
747043,99999,EL MONTE,US,CA,KEMT,34.086,-118.035,+0090.0,19900314,20071231,91731
747043,03165,EL MONTE AIRPORT,US,CA,KEMT,34.083,-118.033,+0090.2,20060101,20180403,91731
722887,03180,BRACKETT FIELD AIRPORT,US,CA,KPOC,34.1,-117.783,+0308.2,20060101,20180403,91750
722887,99999,BRACKETT FLD,US,CA,KPOC,34.083,-117.783,+0308.0,19780306,20071231,91750
747040,99999,ONTARIO INTL ARPT,US,CA,KONT,34.05,-117.567,+0287.0,19770705,20071231,91761
999999,03102,ONTARIO INTERNATIONAL ARPT,US,CA,KONT,34.056,-117.6,+0275.8,19680101,20041231,91761
747040,03102,ONTARIO INTERNATIONAL ARPT,US,CA,KONT,34.056,-117.6,+0289.3,20060101,20180403,91761
722865,93180,ONTARIO,US,CA,KONT,34.067,-117.65,+0303.9,19421215,19991231,91764
722865,99999,ONTARIO,US,CA,KONT,34.067,-117.65,+0303.9,20000101,20010516,91764
720329,99999,CABLE,US,CA,KCCB,34.112,-117.688,+0438.6,20171207,20180402,91786
747186,99999,CAMPO,US,CA,KCZZ,32.633,-116.467,+0807.0,19730101,20071231,91906
747186,03164,CAMPO,US,CA,KCZZ,32.626,-116.468,+0805.0,20060101,20180402,91906
999999,23196,CHULA VISTA BROWN FIELD NAAS,US,CA,KSDM,32.583,-116.983,+0159.4,19450401,19610501,91911
722909,93115,NAVAL AUXILIARY LANDING FD,US,CA,KNRS,32.567,-117.117,+0007.3,19730101,20180403,91932
999999,93115,IMPERIAL BEACH REAM FIELD NAS,US,CA,KNRS,32.567,-117.117,+0007.0,19450501,19721231,91932
722927,03177,MCCLELLAN-PALOMAR AIRPORT,US,CA,KCRQ,33.128,-117.279,+0100.0,20060101,20180403,92008
722927,99999,MC CLELLAN PALOMAR,US,CA,KCRQ,33.128,-117.28,+0101.0,19730101,20071231,92008
722907,53143,GILLESPIE FIELD AIRPORT,US,CA,KSEE,32.826,-116.973,+0118.0,20060101,20180403,92020
722934,53121,OCEANSIDE MUNICIPAL ARPT,US,CA,KOKB,33.219,-117.349,+0008.5,20060101,20180403,92058
722934,99999,OCEANSIDE MUNI,US,CA,KOKB,33.217,-117.35,+0009.0,19831104,20071231,92058
999999,03154,CAMP PENDLETON MCAS,US,CA,KNFG,33.3,-117.35,+0023.8,19660701,19721228,92058
722926,03154,MARINE CORPS AIR STATION,US,CA,KNFG,33.3,-117.35,+0022.9,19730102,20180403,92058
999999,23181,OCEANSIDE CAA AP,US,CA,OCN,33.233,-117.417,+0007.9,19481101,19520201,92058
745056,99999,RAMONA,US,CA,KRNM,33.039,-116.915,+0425.0,19990114,20071231,92065
745056,53120,RAMONA AIRPORT,US,CA,KRNM,33.038,-116.916,+0424.6,20060101,20180403,92065
722907,99999,GILLESPIE FLD,US,CA,KSEE,32.833,-116.967,+0118.0,19730101,20071231,92071
999999,23188,SAN DIEGO LINDBERGH FIELD,US,CA,KSAN,32.734,-117.183,+0008.5,19480101,19721231,92101
722900,23188,SAN DIEGO INTERNATIONAL AIRPO,US,CA,KSAN,32.734,-117.183,+0004.6,19420101,20180403,92101
722906,93112,NORTH ISLAND NAS,US,CA,KNZY,32.7,-117.2,+0007.9,19450401,20180403,92118
722903,99999,MONTGOMERY FLD,US,CA,KMYF,32.816,-117.14,+0130.0,19900208,20071231,92123
722903,03131,MONTGOMERY FIELD AIRPORT,US,CA,KMYF,32.816,-117.139,+0127.1,20060101,20180403,92123
722931,99999,MIRAMAR MCAS,US,CA,KNKX,32.867,-117.15,+0146.0,20040713,20071231,92145
722931,93107,MARINE CORPS AIR STATION,US,CA,KNKX,32.867,-117.133,+0145.4,20060101,20180403,92145
999999,93107,SAN DIEGO MIRAMAR NAS,US,CA,KNKX,32.867,-117.133,+0145.7,19470701,19881231,92145
722930,93107,SAN DIEGO/MIRAMAR N,US,CA,KNKX,32.867,-117.133,+0145.7,19890101,20050303,92145
722904,99999,BROWN FLD MUNI,US,CA,KSDM,32.567,-116.967,+0160.0,20000101,20071231,92154
722904,03178,BROWN FIELD MUNICIPAL ARPT,US,CA,KSDM,32.572,-116.979,+0157.0,20060101,20180403,92154
722904,23196,BROWN FLD MUNI,US,CA,KSDM,32.567,-116.967,+0160.0,19780429,19991231,92154
999999,23156,BEAUMONT 1 E,US,CA,BUO,33.933,-116.967,+0794.0,19480101,19530826,92223
722867,23156,BEAUMONT,US,CA,KBUO,33.933,-116.967,+0692.0,19730101,19991231,92223
722867,99999,BEAUMONT,US,CA,KBUO,33.933,-116.967,+0692.0,20000101,20010901,92223
999999,23158,BLYTHE RIVERSIDE CO,US,CA,KBLH,33.619,-114.714,+0119.5,19481101,19721231,92225
747188,23158,BLYTHE AIRPORT,US,CA,KBLH,33.619,-114.714,+0120.4,19420613,20180403,92225
999999,23199,EL CENTRO NAF,US,CA,KNJK,32.817,-115.683,-0013.1,19450201,19601101,92243
722810,23199,NAF,US,CA,KNJK,32.817,-115.683,-0012.8,19840413,20180403,92243
747185,99999,IMPERIAL CO,US,CA,KIPL,32.834,-115.579,-0016.0,19730101,20071231,92251
747185,03144,IMPERIAL COUNTY AIRPORT,US,CA,KIPL,32.834,-115.579,-0017.7,20060101,20180403,92251
722868,99999,PALM SPRINGS INTL,US,CA,KPSP,33.833,-116.5,+0145.0,19430510,20071231,92262
722868,93138,PALM SPRINGS INTL AIRPORT,US,CA,KPSP,33.822,-116.504,+0124.7,20060101,20180403,92262
747187,03104,DESERT RESORTS RGNL ARPT,US,CA,KTRM,33.627,-116.159,-0036.0,19430712,20180403,92274
999999,03104,PALM SPRINGS THERMAL AP,US,CA,KTRM,33.627,-116.159,-0036.0,19500509,19540130,92274
698114,99999,METMFR 29 PALMS,US,CA,KQGY,34.3,-116.15,+0626.0,19840216,20100128,92277
722889,99999,APPLE VALLEY,US,CA,KAPV,34.575,-117.186,+0933.3,19730622,19730622,92307
723805,23179,NEEDLES AIRPORT,US,CA,KEED,34.768,-114.619,+0271.3,19770217,20180403,92363
999999,23179,NEEDLES AIRPORT,US,CA,KEED,34.768,-114.619,+0278.6,19481101,19650101,92363
999999,23161,DAGGETT BARSTOW-DAGGETT AP,US,CA,KDAG,34.854,-116.786,+0588.0,19481101,19721231,92365
723815,23161,BARSTOW-DAGGETT AIRPORT,US,CA,KDAG,34.854,-116.786,+0584.3,19490101,20180403,92365
723825,99999,S CALIF LOGISTICS,US,CA,KVCV,34.6,-117.383,+0879.0,20041230,20071231,92394
723825,23131,SOUTHERN CALIFORNIA LOGISTICS,US,CA,KVCV,34.583,-117.383,+0879.4,19420101,20180403,92394
999999,23131,GEORGE AFB,US,CA,KVCV,34.583,-117.383,+0879.3,19710101,19710101,92394
722866,99999,SAN BERNARDINO INTL,US,CA,KSBD,34.095,-117.235,+0353.3,20090112,20180402,92408
722866,23122,SAN BERNARDINO INTERNATIONAL,US,CA,KSBD,34.095,-117.235,+0353.3,19430106,19931030,92408
999999,23122,NORTON AAF,US,CA,KSBD,34.1,-117.25,+0335.0,19710101,20180403,92408
722869,03171,RIVERSIDE MUNICIPAL ARPT,US,CA,KRAL,33.952,-117.439,+0245.2,20060101,20180403,92503
722869,99999,RIVERSIDE MUNI,US,CA,KRAL,33.95,-117.433,+0249.0,19770116,20071231,92503
722860,23119,MARCH AIR RESERVE BASE,US,CA,KRIV,33.9,-117.25,+0468.2,19330101,20180403,92518
722860,99999,RIVERSIDE/MARCH AFB,US,CA,KRIV,33.9,-117.25,+0468.0,20000101,20071231,92518
722915,93114,TUSTIN MCAF,US,CA,KNTK,33.7,-117.833,+0016.5,19760101,19891130,92606
999999,93114,MARINE CORPS AIR STATION,US,CA,KNTK,33.7,-117.833,+0017.1,19450301,19751231,92606
690140,93101,EL TORO MCAS,US,CA,KNZJ,33.667,-117.733,+0116.7,19890101,19990630,92618
999999,93101,EL TORO MCAS,US,CA,KNZJ,33.667,-117.733,+0116.7,19450301,20001101,92618
722977,99999,JOHN WAYNE ARPT ORA,US,CA,KSNA,33.667,-117.867,+0017.0,20000101,20031231,92660
722977,93184,J. WAYNE APT-ORANGE CO APT,US,CA,KSNA,33.68,-117.866,+0016.5,19400617,20180403,92707
999999,93184,SANTA ANA,US,CA,KSNA,33.68,-117.866,+0016.8,19680101,19721231,92707
722976,03166,FULLERTON MUNICIPAL ARPT,US,CA,KFUL,33.872,-117.979,+0029.3,20060101,20180403,92833
720333,53175,CORONA MUNICIPAL AIRPORT,US,CA,KAJO,33.898,-117.602,+0162.5,20110101,20180403,92880
720333,99999,CORONA MUNI,US,CA,KAJO,33.9,-117.6,+0162.0,20060907,20180303,92880
723915,99999,SANTA CRUZ ISLAND,US,CA,KSZN,34.02,-119.75,+0010.0,19730103,19800617,93001
723926,99999,CAMARILLO,US,CA,KCMA,34.217,-119.1,+0023.0,19730101,20071231,93010
999999,23136,OXNARD AAF,US,CA,KCMA,34.217,-119.083,+0019.8,19521209,20041231,93010
723926,23136,CAMARILLO AIRPORT,US,CA,KCMA,34.217,-119.083,+0023.5,20060101,20180403,93010
723927,93110,OXNARD AIRPORT,US,CA,KOXR,34.201,-119.207,+0011.0,19440401,20180403,93030
723927,99999,OXNARD,US,CA,KOXR,34.201,-119.207,+0014.0,20000101,20031231,93030
723910,93111,POINT MUGU,US,CA,KNTD,34.117,-119.117,+0004.0,19730101,20180403,93033
999999,93111,POINT MUGU NF,US,CA,KNTD,34.117,-119.117,+0003.7,19460301,19721231,93033
722910,93116,SAN NICOLAS ISLAND NAVAL OUTL,US,CA,KNSI,33.24,-119.458,+0153.0,19430616,20180403,93042
999999,23190,SANTA BARBARA MUNICIPAL AP,US,CA,KSBA,34.426,-119.843,+0006.1,19481101,19650101,93117
723925,23190,SANTA BARBARA MUNICIPAL AIRPO,US,CA,KSBA,34.426,-119.843,+0002.7,19730101,20180403,93117
723898,53119,HANFORD MUNICIPAL AIRPORT,US,CA,KHJO,36.319,-119.629,+0075.9,20060101,20180403,93230
723898,99999,HANFORD MUNI,US,CA,KHJO,36.317,-119.633,+0074.0,19981005,20071231,93230
999999,23110,LEMOORE REEVES NAS,US,CA,KNLC,36.333,-119.95,+0071.3,19710101,19721231,93245
747020,23110,NAVAL AIR STATION,US,CA,KNLC,36.333,-119.95,+0070.7,19610701,20180403,93245
749174,99999,PORTERVILLE CALIFORNIA AAF,US,CA,PTV,36.033,-119.066,+0132.0,19450721,19451012,93257
723895,23149,PORTERVILLE MUNICIPAL ARPT,US,CA,KPTV,36.029,-119.063,+0134.7,20060101,20180403,93257
723895,99999,PORTERVILLE MUNI,US,CA,KPTV,36.033,-119.067,+0135.0,19920129,20071231,93257
723896,99999,VISALIA MUNI,US,CA,KVIS,36.317,-119.4,+0090.0,19730118,20071231,93277
723896,93144,VISALIA MUNICIPAL AIRPORT,US,CA,KVIS,36.317,-119.4,+0089.9,20060101,20180403,93277
999999,23155,BAKERSFIELD KERN COUNTY ARPT,US,CA,KBFL,35.434,-119.054,+0150.0,19480101,19721231,93308
723840,23155,MEADOWS FIELD AIRPORT,US,CA,KBFL,35.434,-119.054,+0149.1,19411001,20180403,93308
722897,93206,SAN LUIS CO REGIONAL ARPT,US,CA,KSBP,35.237,-120.641,+0061.0,20060101,20180403,93401
722897,99999,SAN LUIS CO RGNL,US,CA,KSBP,35.233,-120.633,+0065.0,19730227,20071231,93401
722895,23243,LOMPOC AIRPORT,US,CA,KLPC,34.667,-120.467,+0026.8,20060101,20180403,93436
722895,99999,LOMPOC,US,CA,KLPC,34.667,-120.467,+0027.0,19920409,20071219,93436
723930,93214,VANDENBERG AFB,US,CA,KVBG,34.717,-120.567,+0112.5,20060101,20180404,93437
723930,99999,VANDENBERG AFB,US,CA,KVBG,34.75,-120.567,+0121.0,19510703,20071231,93437
723935,99999,VANDENBERG RANGE,US,CA,KXVW,34.717,-120.567,+0100.0,19950505,20020308,93437
723965,93209,PASO ROBLES MUNICIPAL ARPT,US,CA,KPRB,35.67,-120.628,+0246.9,19411201,20180403,93446
999999,93209,PASO ROBLES MUNICIPAL ARPT,US,CA,KPRB,35.67,-120.628,+0249.0,19530101,19650101,93446
999999,93226,PT POEDRAS BLANCA,US,CA,K87Q,35.666,-121.285,+0018.0,19980202,19981231,93452
723900,93226,SAN SIMEON/PT. PIED,US,CA,K87Q,35.666,-121.285,+0021.0,19990101,20050607,93452
999999,23273,SANTA MARIA PUBLIC ARPT,US,CA,KSMX,34.899,-120.449,+0072.5,19541021,19721231,93455
723940,23273,SANTA MARIA PUB/CAPT G A HANC,US,CA,KSMX,34.899,-120.449,+0073.8,19730101,20180403,93455
723762,93244,SANTA YNEZ AIRPORT,US,CA,KIZA,34.607,-120.076,+0204.5,20060105,20180404,93460
723762,99999,SANTA YNEZ,US,CA,KIZA,34.606,-120.076,+0205.0,20050725,20070814,93460
722953,03183,MOJAVE AIRPORT,US,CA,KMHV,35.067,-118.15,+0849.5,20060102,20180403,93501
722953,99999,MOJAVE,US,CA,KMHV,35.059,-118.152,+0851.0,19860916,20071231,93501
724800,23157,BISHOP AIRPORT,US,CA,KBIH,37.371,-118.358,+1250.3,19430116,20180403,93514
999999,23157,BISHOP AIRPORT,US,CA,KBIH,37.371,-118.358,+1263.4,19480104,19721231,93514
720652,99999,USMC MTN WARFARE TRAINING CEN,US,CA,KBAN,38.35,-119.517,+2067.2,20090813,20180402,93517
723171,53144,EDWARDS AF AUX NORTH,US,CA,K9L2,34.988,-117.865,+0694.3,20060101,20180403,93523
723810,23114,EDWARDS AIR FORCE BASE,US,CA,KEDW,34.9,-117.867,+0704.4,19411201,20180403,93523
723171,99999,EDWARDS AF AUX NORTH BASE,US,CA,K9L2,34.991,-117.863,+0700.7,20050712,20071231,93523
723810,99999,EDWARDS AFB,US,CA,KEDW,34.933,-117.9,+0705.0,20000101,20071231,93524
723826,99999,INYOKERN,US,CA,KIYK,35.659,-117.83,+0748.0,19730621,20071231,93527
723826,93194,INYOKERN AIRPORT,US,CA,KIYK,35.667,-117.833,+0748.9,20060101,20131104,93527
723830,23187,SANDBERG,US,CA,KSDB,34.744,-118.724,+1374.7,19730101,20180403,93536
999999,23187,SANDBERG,US,CA,KSDB,34.744,-118.724,+1378.6,19480101,19721231,93536
723816,03159,GENERAL WILLIAM J. FOX AIRFIE,US,CA,KWJF,34.741,-118.212,+0712.6,19740601,20180403,93536
723894,99999,MAMMOTH YOSEMITE,US,CA,KMMH,37.624,-118.838,+2173.0,19840331,20071231,93546
723894,03181,MAMMOTH YOSEMITE AIRPORT,US,CA,KMMH,37.633,-118.85,+2172.6,20060103,20180403,93546
999999,23182,PALMDALE AIRPORT,US,CA,KPMD,34.629,-118.084,+0787.0,19481101,19650101,93550
723820,23182,PDLE PRODN FLT/TST AF PLT,US,CA,KPMD,34.629,-118.084,+0769.2,19730101,20180403,93550
723820,99999,PALMDALE PRODUCTION,US,CA,KPMD,34.633,-118.083,+0774.0,20000101,20031231,93550
746120,93104,CHINA LAKE,US,CA,KNID,35.688,-117.693,+0679.7,19730101,20180403,93555
999999,93104,CHINA LAKE NAF,US,CA,KNID,35.688,-117.693,+0695.9,19450401,19721201,93555
749171,99999,TEHACHAPI MUNI,US,CA,KTSP,35.135,-118.439,+1219.5,19421113,20180402,93561
749171,00479,TEHACHAPI MUNICIPAL AIRPORT,US,CA,KTSP,35.135,-118.439,+1219.5,20150317,20180323,93561
720952,99999,GRAY BUTTE FLD,US,CA,KGXA,34.564,-117.675,+0920.5,20110825,20180402,93591
745046,93242,MADERA MUNICIPAL AIRPORT,US,CA,KMAE,36.988,-120.111,+0077.1,20060101,20180403,93637
745046,99999,MADERA MUNI,US,CA,KMAE,36.987,-120.113,+0077.0,19990114,20071231,93637
723897,99999,FRESNO CHANDLER EXECUTIVE,US,CA,KFCH,36.732,-119.82,+0084.7,20150717,20180402,93706
999999,23167,FRESNO CHANDLER FIELD,US,CA,FCH,36.733,-119.817,+0084.1,19480101,19490901,93706
723897,23167,FRESNO CHANDLER EXEC,US,CA,KFCH,36.732,-119.82,+0085.0,19950423,19970923,93706
723890,93193,FRESNO YOSEMITE INTERNATIONAL,US,CA,KFAT,36.78,-119.719,+0101.5,19411204,20180403,93727
999999,93193,FRESNO YOSEMITE INTL AP,US,CA,KFAT,36.78,-119.719,+0099.7,19650101,19711231,93727
724917,23233,SALINAS MUNI,US,CA,KSNS,36.664,-121.608,+0023.5,19410805,20100801,93905
725930,23233,SALINAS MUNICIPAL AIRPORT,US,CA,KSNS,36.664,-121.608,+0022.6,20100801,20180403,93905
999999,23233,SALINAS MUNICIPAL AP,US,CA,KSNS,36.664,-121.608,+0023.5,19481101,19650101,93905
690020,93218,JOLON HUNTER LIGGETT MIL RES,US,CA,KHGT,36,-121.233,+0317.0,19640715,19970401,93928
690070,93217,FRITZSCHE AAF,US,CA,KOAR,36.683,-121.767,+0043.0,19600404,19930831,93933
999999,93217,FRITZSCHE AAF,US,CA,KOAR,36.683,-121.767,+0043.9,19710101,19710101,93933
724916,93217,MARINA MUNI,US,CA,KOAR,36.683,-121.767,+0041.0,19730102,19901229,93933
999999,23245,MONTEREY NAF,US,CA,KMRY,36.6,-121.867,+0050.0,19450301,19720301,93940
724915,23245,MONTEREY PENINSULA,US,CA,KMRY,36.583,-121.833,+0078.0,19730101,19991231,93940
724915,23259,MONTEREY PENINSULA AIRPORT,US,CA,KMRY,36.588,-121.845,+0050.3,20060101,20180403,93940
720646,99999,HALF MOON BAY AIRPORT,US,CA,KHAF,37.513,-122.501,+0020.4,20090717,20170522,94019
720646,00228,HALF MOON BAY AIRPORT,US,CA,KHAF,37.513,-122.501,+0020.1,20130101,20180404,94019
745090,99999,MOUNTAIN VIEW /SUNN,US,CA,KNUQ,37.417,-122.05,+0012.0,20000323,20031226,94043
745090,23244,MOFFETT FEDERAL AIRFLD APT,US,CA,KNUQ,37.406,-122.048,+0011.9,19730101,20180403,94043
999999,23244,MOUNTAIN VIEW MOFFETT FLD NAS,US,CA,KNUQ,37.406,-122.048,+0010.4,19450303,19721231,94043
724938,93231,SAN CARLOS AIRPORT,US,CA,KSQL,37.517,-122.25,+0001.5,20060101,20180403,94070
724938,99999,SAN CARLOS,US,CA,KSQL,37.512,-122.25,+0002.0,19830701,20071231,94070
724940,23234,SAN FRANCISCO INTERNATIONAL A,US,CA,KSFO,37.62,-122.365,+0002.4,19730101,20180403,94128
999999,23234,SAN FRANCISCO INTL AP,US,CA,KSFO,37.62,-122.365,+0005.5,19480101,19721231,94128
724937,99999,PALO ALTO ARPT OF SA,US,CA,KPAO,37.461,-122.115,+0001.0,19841101,20071231,94303
999999,23239,NAVAL AIR STATION,US,CA,KNGZ,37.783,-122.317,+0004.3,19450301,20041231,94501
724950,23250,CONCORD/BUCHANAN,US,CA,KCCR,37.983,-122.05,+0012.0,19760131,19960630,94520
724950,23254,BUCHANAN FIELD AIRPORT,US,CA,KCCR,37.992,-122.055,+0005.5,20100801,20180403,94520
999999,23254,CONCORD CONCORD-BUCHANAN FIEL,US,CA,KCCR,37.992,-122.055,+0018.3,19690101,19700101,94520
724936,23254,CONCORD/BUCHANAN,US,CA,KCCR,37.992,-122.055,+0018.3,19730101,20100731,94520
745160,23202,TRAVIS AIR FORCE BASE,US,CA,KSUU,38.267,-121.933,+0018.9,19430811,20180403,94535
999999,23202,TRAVIS FIELD AAB,US,CA,KSUU,38.267,-121.933,+0018.9,19710101,19710101,94535
745160,99999,FAIRFIELD/TRAVIS AF,US,CA,KSUU,38.267,-121.95,+0022.0,20000101,20071231,94535
725850,93228,HAYWARD EXECUTIVE AIRPORT,US,CA,KHWD,37.654,-122.115,+0013.1,20100801,20180403,94541
724935,93228,HAYWARD AIR TERM,US,CA,KHWD,37.654,-122.115,+0014.3,20000101,20100731,94541
724927,23285,LIVERMORE MUNICIPAL ARPT,US,CA,KLVK,37.693,-121.814,+0119.8,20000101,20180403,94551
724927,99999,LIVERMORE MUNICIPAL,US,CA,KLVK,37.7,-121.817,+0121.0,19730625,19991231,94551
724955,99999,NAPA CO,US,CA,KAPC,38.213,-122.281,+0011.0,19730101,19991231,94558
724955,93227,NAPA COUNTY AIRPORT,US,CA,KAPC,38.21,-122.285,+0004.3,20000101,20180403,94558
999999,93211,OAKLAND NAS,US,CA,NBJ,37.733,-122.2,+0002.1,19490601,19541031,94621
724930,23230,METRO OAKLAND INTL AIRPORT,US,CA,KOAK,37.721,-122.221,+0001.8,19430101,20180403,94621
724930,99999,OAKLAND/METROP. OAK,US,CA,KOAK,37.75,-122.217,+0004.0,20000101,20031231,94621
999999,23230,OAKLAND METROPOLITAN,US,CA,KOAK,37.721,-122.221,+0026.8,19480101,19721231,94621
720406,99999,GNOSS FIELD AIRPORT,US,CA,KDVO,38.15,-122.55,+0000.6,20071114,20170531,94945
999999,00135,GNOSS FIELD AIRPORT,US,CA,KDVO,38.15,-122.55,+0001.2,20140731,20161231,94945
720406,00135,GNOSS FIELD AIRPORT,US,CA,KDVO,38.15,-122.55,+0001.2,20170101,20180403,94945
724956,23211,HAMILTON AAF,US,CA,KSRF,38.067,-122.5,+0001.0,19390301,19760709,94949
745058,23277,WATSONVILLE MUNICIPAL ARPT,US,CA,KWVI,36.936,-121.789,+0048.8,20060101,20180403,95019
749181,99999,WATSONVILLE CALIFORNIA NAAS,US,CA,WVI,36.933,-121.783,+0044.0,19450301,19451015,95019
745058,99999,WATSONVILLE MUNI,US,CA,KWVI,36.933,-121.783,+0050.0,19990114,20071231,95019
749179,99999,HOLLISTER MUNI,US,CA,KCVH,36.9,-121.417,+0070.1,19450301,20180402,95023
749179,00392,HOLLISTER MUNICIPAL AIRPORT,US,CA,KCVH,36.9,-121.417,+0072.2,20170519,20180207,95023
749484,00395,SOUTH COUNTY AIRPORT OF SANTA,US,CA,KE16,37.082,-121.597,+0086.3,20150224,20180402,95046
999999,00395,SOUTH COUNTY AIRPORT OF SANTA,US,CA,KE16,37.082,-121.597,+0086.3,20140731,20180402,95046
724945,23293,N Y. MINETA SN JO INTL APT,US,CA,KSJC,37.359,-121.924,+0015.5,19730101,20180403,95110
999999,23293,SAN JOSE MUNICIPAL AP,US,CA,KSJC,37.359,-121.924,+0015.2,19510101,19721231,95110
724946,93232,REID-HILLVIEW AIRPORT OF SANT,US,CA,KRHV,37.333,-121.817,+0040.5,20060101,20180403,95148
724946,99999,REID HILLVIEW OF SAN,US,CA,KRHV,37.333,-121.817,+0041.0,19800409,20071231,95148
999999,23237,STOCKTON METROPOLITAN ARPT,US,CA,KSCK,37.889,-121.226,+0008.2,19481101,19721231,95206
724920,23237,STOCKTON METROPOLITAN AIRPORT,US,CA,KSCK,37.889,-121.226,+0007.9,19410103,20180403,95206
720681,99999,CALAVERAS CO MAURY RASMUSSEN,US,CA,KCPU,38.146,-120.648,+0403.9,20160526,20180402,95249
724810,99999,CASTLE,US,CA,KMER,37.38,-120.568,+0057.6,20011031,20071231,95301
724810,23203,CASTLE AFB,US,CA,KMER,37.383,-120.567,+0058.2,19420101,20180403,95301
720615,00206,COLUMBIA AIRPORT,US,CA,KO22,38.033,-120.417,+0646.2,20171004,20180303,95310
744925,99999,CROWS LANDING CALIFORNIA NAAS,US,CA,NRC,37.4,-121.1,+0050.0,19450301,19460601,95313
724815,99999,MERCED MUNI MACREADY,US,CA,KMCE,37.285,-120.514,+0048.0,19831001,20071231,95341
724815,23257,MRCD MUNI/MACREADY FLD APT,US,CA,KMCE,37.285,-120.513,+0046.3,20060101,20180403,95341
724926,23258,MDSTO CTY-CO H SHAM FD APT,US,CA,KMOD,37.624,-120.951,+0022.3,19730101,20180403,95354
724925,23240,CROWS LANDING,US,CA,KNRC,37.4,-121.133,+0056.7,19730102,19940309,95363
999999,23240,NAVAL AUXILIARY LANDING FIELD,US,CA,KNRC,37.4,-121.133,+0050.3,20020902,20041231,95363
724957,99999,C M SCHULZ SONOMA CO,US,CA,KSTS,38.517,-122.817,+0038.0,19430404,19991231,95403
724957,23213,SONOMA COUNTY AIRPORT,US,CA,KSTS,38.504,-122.81,+0034.8,20000101,20180403,95403
724991,99999,POINT ARENA (CGS),US,CA,89Q,38.95,-123.733,+0018.0,19760309,19840928,95468
725905,23275,UKIAH MUNICIPAL AIRPORT,US,CA,KUKI,39.126,-123.201,+0183.2,19730101,20180403,95482
725905,99999,UKIAH MUNI,US,CA,KUKI,39.117,-123.2,+0187.0,20000101,20031231,95482
999999,23275,UKIAH MUNICIPAL AP,US,CA,KUKI,39.126,-123.201,+0190.8,19490912,19650101,95482
725940,24213,WOODLEY ISLAND (NEW 10/94),US,CA,KEKA,40.81,-124.16,+0006.1,20060101,20180403,95501
725940,99999,EUREKA,US,CA,KEKA,40.8,-124.167,+0018.0,19480101,20071231,95501
725945,24283,ARCATA AIRPORT,US,CA,KACV,40.978,-124.109,+0061.0,19730101,20180403,95519
999999,24283,ARCATA AIRPORT,US,CA,KACV,40.978,-124.109,+0064.0,19491201,19721231,95519
999999,24286,CRESCENT CITY FAA AI,US,CA,KCEC,41.78,-124.237,+0016.8,19491015,19550101,95531
725946,99999,JACK MC NAMARA FLD,US,CA,KCEC,41.767,-124.233,+0017.0,20000101,20031231,95531
725946,24286,JACK MCNAMARA FIELD ARPT,US,CA,KCEC,41.78,-124.237,+0017.4,19730101,20180403,95531
749485,00396,ROHNERVILLE AIRPORT,US,CA,KFOT,40.554,-124.133,+0119.2,20120101,20180403,95540
749485,99999,ROHNERVILLE,US,CA,KFOT,40.554,-124.133,+0119.5,20110921,20111231,95540
720267,23224,AUBURN MUNICIPAL AIRPORT,US,CA,KAUN,38.955,-121.082,+0466.7,20060101,20180403,95602
720267,99999,AUBURN MUNICIPAL,US,CA,KAUN,38.955,-121.082,+0468.0,20040525,20071231,95602
720576,00174,UNIVERSITY AIRPORT,US,CA,KEDU,38.533,-121.783,+0021.0,20130101,20180303,95616
720576,99999,DAVIS,US,CA,KEDU,38.533,-121.783,+0021.0,20080721,20180402,95616
720614,00205,LINCOLN REGIONAL AIRPORT KARL,US,CA,KLHM,38.909,-121.351,+0037.2,20130101,20180403,95648
720614,99999,LINCOLN RGNL KARL HARDER FLD,US,CA,KLHM,38.909,-121.351,+0036.9,20090601,20170522,95648
724836,23208,SACRAMENTO MCCLELLAN AFB,US,CA,KMCC,38.667,-121.4,+0023.5,19391109,20180403,95652
724836,99999,MC CLELLAN AFLD,US,CA,KMCC,38.668,-121.401,+0022.9,20000101,20070507,95652
724835,23206,MATHER FIELD,US,CA,KMHR,38.567,-121.3,+0029.3,19410901,19930515,95655
724833,23206,SACRAMENTO MATHER AIRPORT,US,CA,KMHR,38.567,-121.3,+0030.2,20020902,20180403,95655
724833,99999,SACRAMENTO MATHER FL,US,CA,KMHR,38.555,-121.297,+0030.0,19880304,20031231,95655
720645,00227,PLACERVILLE AIRPORT,US,CA,KPVF,38.717,-120.75,+0787.3,20130101,20180402,95667
720645,99999,PLACERVILLE,US,CA,KPVF,38.724,-120.753,+0787.3,20090711,20180322,95667
724828,93241,NUT TREE AIRPORT,US,CA,KVCB,38.378,-121.958,+0033.2,20060101,20180403,95688
724828,99999,NUT TREE,US,CA,KVCB,38.383,-121.967,+0035.0,20010811,20071231,95688
999999,23232,SACRAMENTO EXECUTIVE ARPT,US,CA,KSAC,38.507,-121.495,+0007.6,19470701,19721231,95822
724830,23232,SACRAMENTO EXECUTIVE AIRPORT,US,CA,KSAC,38.507,-121.495,+0004.6,19730101,20180403,95822
724839,93225,SACRAMENTO INTL AIRPORT,US,CA,KSMF,38.696,-121.59,+0007.0,19730101,20180403,95837
724839,99999,SACRAMENTO INTL,US,CA,KSMF,38.683,-121.583,+0008.0,20000101,20031231,95837
999999,93216,BEALE AFB,US,CA,KBAB,39.133,-121.433,+0034.4,19710101,19710101,95903
724837,99999,BEALE AFB,US,CA,KBAB,39.133,-121.433,+0034.0,20000103,20071231,95903
724837,93216,BEALE AIR FORCE BASE,US,CA,KBAB,39.133,-121.433,+0034.4,19590701,20180403,95903
749486,00397,NEVADA COUNTY AIR PARK,US,CA,KGOO,39.224,-121.003,+0961.0,20171013,20180402,95945
749486,99999,NEVADA CO AIR PARK,US,CA,KGOO,39.224,-121.003,+0960.7,20110921,20180322,95945
725845,23225,BLUE CANYON - NYACK ARPT,US,CA,KBLU,39.277,-120.71,+1608.1,19730101,20180403,95959
999999,23225,BLUE CANYON AP,US,CA,KBLU,39.277,-120.71,+1610.3,19480101,19721231,95959
724838,99999,YUBA CO,US,CA,KMYV,39.1,-121.567,+0019.0,19430811,20071231,95961
724838,93205,YUBA COUNTRY AIRPORT,US,CA,KMYV,39.102,-121.568,+0018.9,20060101,20180403,95961
745048,99999,OROVILLE MUNI,US,CA,KOVE,39.483,-121.617,+0059.0,19990114,20071231,95965
745048,93210,OROVILLE MUNICIPAL AIRPORT,US,CA,KOVE,39.49,-121.618,+0057.9,20060101,20180403,95965
724970,99999,CHICO CALIFORNIA MAP,US,CA,CIC,39.783,-121.85,+0069.0,19420506,19760305,95973
724973,99999,CHICO MUNI,US,CA,KCIC,39.8,-121.867,+0073.0,19900314,20071231,95973
724973,93203,CHICO MUNICIPAL AIRPORT,US,CA,KCIC,39.8,-121.85,+0082.9,20060101,20180403,95973
725915,24257,REDDING MUNICIPAL ARPT,US,CA,KRDD,40.518,-122.299,+0153.0,19440901,19910331,96002
725920,24257,REDDING MUNICIPAL AIRPORT,US,CA,KRDD,40.518,-122.299,+0151.5,19910331,20180403,96002
999999,24212,BURNEY,US,CA,KBNY,40.883,-121.667,+0962.6,19480101,19480927,96013
725956,24212,BURNEY,US,CA,KBNY,40.883,-121.667,+0957.0,19730101,19860817,96013
725959,99999,MONTAGUE,US,CA,K1O5,41.733,-122.55,+0770.0,19480101,19960312,96064
725955,24259,SISKIYOU COUNTY AIRPORT,US,CA,KSIY,41.781,-122.468,+0808.0,19500101,20180403,96064
725955,99999,SISKIYOU CO,US,CA,KSIY,41.783,-122.467,+0807.0,20000101,20031231,96064
999999,24259,MONTAGUE SISKIYOU COUNTY AP,US,CA,KSIY,41.781,-122.472,+0805.0,19560101,19660101,96064
999999,24215,MOUNT SHASTA,US,CA,KMHS,41.333,-122.333,+1077.5,19480401,19761231,96067
725957,24215,MOUNT SHASTA,US,CA,KMHS,41.333,-122.333,+1077.5,19770101,20180403,96067
725957,99999,MOUNT SHASTA,US,CA,KMHS,41.317,-122.317,+1077.0,20000101,20031231,96067
999999,24216,RED BLUFF MUNICIPAL ARPT,US,CA,KRBL,40.152,-122.254,+0107.6,19480101,19721231,96080
725910,24216,RED BLUFF MUNICIPAL ARPT,US,CA,KRBL,40.152,-122.254,+0107.6,19730101,20180403,96080
720193,00117,LONNIE POOL FIELD WEAVERVILLE,US,CA,KO54,40.747,-122.922,+0716.3,20151217,20180322,96093
720193,99999,LONNIE POOL FLD / WEAVERVILLE,US,CA,KO54,40.747,-122.922,+0716.0,20101030,20180402,96093
725958,94299,ALTURAS MUNICIPAL AIRPORT,US,CA,KAAT,41.491,-120.564,+1333.5,20060101,20180403,96101
725958,99999,ALTURAS MUNI,US,CA,KAAT,41.483,-120.567,+1333.0,19831104,20071231,96101
720652,00433,BRIDGEPORT SONORA JUNCTION,US,CA,KBAN,38.356,-119.519,+2057.1,20130110,20180323,96107
725837,99999,SUSANVILLE MUNI,US,CA,KSVE,40.376,-120.573,+1264.6,19770301,20180402,96130
725841,99999,SUSANVILLE MUNI,US,CA,SVE,40.383,-120.567,+1264.0,19760305,19770227,96130
725847,93230,LAKE TAHOE AIRPORT,US,CA,KTVL,38.898,-119.995,+1924.5,20000101,20180403,96150
725847,99999,LAKE TAHOE,US,CA,KTVL,38.883,-120,+1909.0,19730101,19991231,96150
725846,93201,TRUCKEE-TAHOE AIRPORT,US,CA,KTRK,39.32,-120.139,+1798.3,20060101,20180403,96161
725846,99999,TRUCKEE-TAHOE,US,CA,KTRK,39.32,-120.133,+1798.0,19730101,20071231,96161
999999,14781,AYER,US,MA,,42.567,-71.6,+0082.0,19450301,19450930,01432
725095,99999,WORCESTER RGNL,US,MA,,42.267,-71.867,+0315.0,20100801,20100817,01602
744900,99999,BEDFORD/HANSCOM AFB,US,MA,,42.467,-71.283,+0041.0,19930101,19990204,01730
725059,99999,LAURENCE G HANSCOM,US,MA,,42.467,-71.283,+0042.0,19780211,20071231,01730
999999,04769,MAYNARD,US,MA,,42.417,-71.483,+0063.1,19581001,19710801,01775
999999,14753,BLUE HILL OBSERVATORY,US,MA,,42.212,-71.114,+0190.5,19981001,19991231,02021
725094,99999,MARSHFIELD AIRPORT,US,MA,,42.1,-70.683,+0003.0,19900725,20060802,02050
726067,99999,SCITUATE COAST GUARD STATION,US,MA,,42.2,-70.72,+0001.0,19750911,19960401,02066
999999,14789,SQUANTUM NAS,US,MA,,42.267,-71.033,+0004.9,19480201,19531220,02171
994971,99999,BOSTON,US,MA,,42.35,-71.05,+0000.0,20060403,20180402,02210
998014,99999,WAQUIOT BAY RESERVE,US,MA,,41.583,-70.517,+0010.0,20071016,20180402,02536
997274,99999,WOODS HOLE,US,MA,,41.52,-70.67,+0010.0,20050104,20180402,02543
725063,99999,NANTUCKET MEM,US,MA,,41.25,-70.05,+0015.0,20000101,20031231,02554
725057,99999,BRANT POINT COAST GUARD STATI,US,MA,,41.28,-70.08,+0008.0,19750911,19960701,02554
994046,99999,NANTUCKET ISLAND,US,MA,,41.28,-70.1,+0000.0,20050503,20180402,02554
726069,99999,SANDWICH COAST GUARD STATION,US,MA,,41.78,-70.5,+0001.0,19750911,19960701,02562
725055,99999,CHATHAM COAST GUARD STATION,US,MA,,41.67,-69.95,+0001.0,19750911,19960630,02633
997273,99999,BORDEN FLATS LIGHT,US,MA,,41.7,-71.17,+0010.0,20050104,20180402,02721
997279,99999,FALL RIVER,US,MA,,41.7,-71,+0010.0,20050104,20180402,02747
749108,99999,ELIZABETH AAF,US,NY,,41.267,-72.017,+0015.0,19440501,19460101,06390
997271,99999,THE BATTERY,US,NY,,40.701,-74.014,+0010.0,20050104,20180402,10004
725033,99999,NEW YORK CITY  CENTRAL PARK,US,NY,,40.767,-73.983,+0027.0,20100801,20100817,10019
997272,99999,BERGEN POINT,US,NY,,40.639,-74.146,+0010.0,20050104,20180402,10303
999999,14797,BEAR MOUNTAIN WB,US,NY,,41.317,-74,+0396.8,19480101,19530515,10928
744976,99999,NTPD AIR OPS HELIPORT,US,NY,,40.6,-73.9,+0004.9,19750915,19960510,11234
744859,99999,FREEPORT,US,NY,,40.65,-73.583,+0009.0,19850522,19850531,11520
749105,99999,MITCHEL FIELD,US,NY,,40.733,-73.6,+0038.0,19370101,19610416,11530
999999,14708,HEMPSTEAD MITCHELL FLD AFB,US,NY,,40.733,-73.6,+0038.1,19490101,19610416,11530
725039,99999,EATONS NECK COAST GUARD STATI,US,NY,,40.95,-73.4,+0001.0,19750911,19960701,11768
725035,99999,LONG ISLAND MAC ART,US,NY,,40.783,-73.1,+0031.0,20100801,20100817,11779
725010,99999,UPTON,US,NY,,40.85,-72.85,+0026.2,19990503,20050927,11949
997282,99999,MONTAUK,US,NY,,41.05,-71.97,+0010.0,20050104,20180402,11954
999999,04782,SCHENECTADY,US,NY,,42.833,-73.917,+0067.1,19611005,19620809,12308
999999,64756,MILLBROOK 3 W,US,NY,,41.786,-73.742,+0125.9,20041101,20171006,12545
997991,99999,HUDSON RIVER RESERVE,US,NY,,42.017,-73.917,+0012.0,20071016,20180402,12571
725185,99999,FLOYD BENNETT MEM,US,NY,,43.333,-73.6,+0103.0,20100801,20100817,12839
999999,14772,TICONDEROGA 3 NE,US,NY,,43.883,-73.4,+0064.0,19480101,19480915,12883
999999,64758,ITHACA 13 E,US,NY,,42.44,-76.246,+0374.3,20041027,20171006,13053
725195,99999,OSWEGO COAST GUARD STATION,US,NY,,43.47,-76.52,+0078.0,19760926,19960701,13126
999999,14749,FORT PLAIN WB AP,US,NY,,42.967,-74.667,+0217.0,19480101,19480901,13339
999999,14774,UTICA CAA AP,US,NY,,43.167,-75.317,+0163.1,19490101,19501125,13403
994590,99999,THOUSAND I. BRDG.  NY,US,NY,,44.3,-75.98,+0075.6,19941007,20090502,13607
999999,14743,CANTON 4 SE,US,NY,,44.583,-75.117,+0121.9,19460101,19501031,13617
998223,99999,ALEXANDRIA BAY,US,NY,,44.333,-75.933,+0000.0,20091111,20180402,13640
998435,99999,OGDENSBURG,US,NY,,44.703,-75.495,+0010.0,20101031,20180402,13669
999999,14738,BINGHAMTON TRI-CITIES ARPT,US,NY,,42.083,-76.1,+0253.9,19480101,19510701,13760
997989,99999,OLCOTT HARBOR,US,NY,,43.333,-78.717,+0083.0,20071016,20180402,14028
998266,99999,STURGEON POINT,US,NY,,42.683,-79.05,+0004.2,20090605,20180402,14047
998168,99999,NIAGARA CG STATION,US,NY,,43.267,-79.067,+0243.0,20071203,20180402,14174
725288,99999,NIAGARA COAST GUARD STATION,US,NY,,43.27,-79.07,+0082.0,19760926,19960701,14174
725285,99999,BUFFALO COAST GUARD STATION,US,NY,,42.88,-78.88,+0180.0,19760926,19960701,14202
725230,99999,DANSVILLE MUNICIPAL,US,NY,,42.567,-77.717,+0209.0,20020418,20041014,14437
999999,04727,GENEVA SAMPSON AFB,US,NY,,42.75,-76.9,+0187.1,19520102,19560624,14541
998267,99999,ROCHESTER,US,NY,,43.267,-77.617,+0003.0,20090609,20180402,14612
998436,99999,BARCELONA HARBOR,US,NY,,42.346,-79.596,+0174.0,20110124,20150922,14787
720746,99999,COVINGTON MUNI,US,GA,,33.632,-83.85,+0242.3,20100901,20130430,30054
722273,99999,ATLANTA (NAVRES),US,GA,,33.917,-84.517,+0326.0,20030712,20030712,30069
722150,99999,PEACHTREE CITY,US,GA,,33.356,-84.567,+0244.9,19990428,20060212,30269
749483,99999,JACKSON CO,US,GA,,34.174,-83.561,+0289.9,19450201,20180402,30529
720263,99999,ELBERT CO PATZ FLD,US,GA,,34.095,-82.816,+0183.8,20040525,20180322,30635
999999,63850,WATKINSVILLE 5 SSE,US,GA,,33.784,-83.39,+0225.9,20040430,20171006,30677
720959,99999,BUTLER MUNI,US,GA,,32.568,-84.251,+0203.3,20111021,20121031,31006
749496,99999,MOGUL,US,GA,,32.833,-83.567,+0141.0,19480101,19481201,31217
998010,99999,SAPELO ISLAND RESERVE,US,GA,,31.417,-81.283,+0005.0,20071016,20180402,31305
722077,99999,TYBEE COAST GUARD STATION,US,GA,,32.02,-80.85,+0002.0,19750911,19871030,31328
997301,99999,FT PALASKI,US,GA,,32.03,-80.9,+0006.0,20050217,20180402,31328
749085,99999,HARRIS NECK AAF,US,GA,,31.633,-81.267,+0006.0,19440501,19441214,31331
999999,13853,SAVANNAH CHATHAM FIELD AAF,US,GA,,32.133,-81.2,+0015.8,19490520,19501001,31408
722135,99999,ALMA/BACON CO.,US,GA,,31.533,-82.5,+0061.0,20100801,20100817,31510
999999,93840,ST SIMONS ISLAND NAS,US,GA,,31.167,-81.4,+0003.0,19450501,19470420,31522
999999,53846,KINGS BAY/NAVAL STATION,US,GA,,30.8,-81.5,+0015.2,19960702,20031231,31558
999999,63856,BRUNSWICK 23 S,US,GA,,30.808,-81.46,+0007.6,20041215,20171006,31558
999999,13815,ALBANY NAVAL AIR STN,US,GA,,31.583,-84.117,+0066.1,19720101,19721231,31705
722184,99999,PLAINS / PETERSON FIELD,US,GA,,32.08,-84.37,+0160.0,19771221,19810122,31780
997347,99999,FERNANDINA BEACH,US,FL,,30.67,-81.47,+0007.0,20050322,20180402,32034
722056,99999,DAYTONA BEACH INTL,US,FL,,29.167,-81.05,+0011.0,20100801,20100818,32114
999999,12846,DAYTONA BEACH NAS,US,FL,,29.183,-81.067,+0018.9,19450201,19460201,32114
999999,12847,DELAND NAS,US,FL,,29.083,-81.417,+0032.0,19450301,19460101,32130
998000,99999,GUANA TOLOMATO MATANZAS,US,FL,,29.65,-81.217,+0004.0,20071016,20180402,32137
722058,99999,PONCE DE LEON INLET,US,FL,,29.07,-80.92,+0003.0,19750911,19830324,32169
722068,99999,JACKSONVILLE/CRAIG,US,FL,,30.333,-81.517,+0012.0,19740822,20100818,32225
997358,99999,MAYPORT,US,FL,,30.397,-81.43,+0002.0,20050322,20180402,32233
724739,99999,CARRABELLE THOMPSON,US,FL,,29.842,-84.701,+0006.1,20061010,20061012,32322
997992,99999,APALACHICOLA RESERVE,US,FL,,29.783,-84.883,+0005.0,20071016,20180402,32328
994650,99999,KEATON BEACH,US,FL,,29.82,-83.59,+0001.8,20020219,20180402,32348
722224,99999,PERRY FOLEY,US,FL,,30.069,-83.581,+0013.7,19980514,20071231,32348
720945,99999,QUINCY MUNI ARPT,US,FL,,30.6,-84.55,+0020.9,20110521,20130430,32352
998199,99999,PANAMA CITY,US,FL,,30.15,-85.667,+0005.0,20080721,20180402,32401
997352,99999,PANAMA CITY BEACH,US,FL,,30.22,-85.88,+0010.0,20050322,20180402,32413
747761,99999,TRI CO,US,FL,,30.846,-85.601,+0025.9,20131115,20171109,32440
999999,63871,TRI-COUNTY AIRPORT,US,FL,,30.846,-85.601,+0025.9,20080101,20180402,32440
722240,99999,CAPE SAN BLAS  FL.,US,FL,,29.683,-85.367,+0002.0,19780823,20040527,32456
722227,03815,PENSACOLA SAUFLEY NAS,US,FL,,30.483,-87.35,+0028.0,19730102,19751231,32526
749014,99999,EGLIN SITE B6,US,FL,,30.617,-86.733,+0042.0,19490919,19491028,32542
690090,99999,HURLBURT FLD/EXERCIS,US,FL,,30.433,-86.717,+0003.0,20050516,20100326,32544
692754,99999,2 CWSS TMQ-53,US,FL,,30.417,-86.667,+0011.0,19840922,20140602,32548
690524,99999,2 CWSS TMQ-53,US,FL,,30.417,-86.667,+0009.0,19910315,20150303,32548
693254,99999,2 CWSS FMQ-22,US,FL,,30.417,-86.667,+0008.0,19830811,20150303,32548
692764,99999,2 CWSS TMQ-53,US,FL,,30.417,-86.667,+0010.0,19840925,20140809,32548
722228,99999,SANTA ROSA COAST GUARD STATIO,US,FL,,30.32,-87.25,+0002.0,19750916,19790818,32561
999999,03876,VALPARAISO,US,FL,,30.433,-86.933,+0011.9,19670213,19701222,32566
722146,99999,GAINESVILLE RGNL,US,FL,,29.683,-82.267,+0048.0,20100801,20100818,32609
994640,99999,CEDAR KEY,US,FL,,29.14,-83.03,+0001.8,20020222,20180402,32625
749053,99999,WILLISTON MUNI,US,FL,,29.35,-82.467,+0022.0,19431207,19440322,32696
999999,12889,BOMBING RANGE DETACHMENT ASTO,US,FL,,29.143,-81.633,+0028.0,19960702,20031231,32702
999999,12851,MELBOURNE NAS,US,FL,,28.1,-80.633,+0017.1,19450401,19460101,32901
998275,99999,BOB ALLEN,US,FL,,28.017,-80.683,+0003.0,20090701,20180402,32907
999999,12881,VALKARIA,US,FL,,27.95,-80.567,+0009.1,19620315,19670712,32950
994951,99999,SEBASTIAN INLET STATE PARK,US,FL,,27.862,-80.445,+0010.0,20130401,20180402,32951
999999,12855,VERO BEACH NAS,US,FL,,27.65,-80.417,+0015.8,19450201,19460401,32960
722045,99999,VERO BEACH MUNI,US,FL,,27.65,-80.417,+0008.0,20100801,20100818,32960
998305,99999,PORT EVERGLADES CHANNEL,US,FL,,26.092,-80.109,+0003.5,20090701,20180402,33004
999999,12852,MIAMI MCAS,US,FL,,25.917,-80.283,+0007.9,19460101,19580801,33014
998297,99999,TAYLOR RIVER,US,FL,,25.217,-80.65,+0003.0,20090701,20180402,33034
998284,99999,HIGHWAY CREEK,US,FL,,25.25,-80.45,+0003.0,20090701,20180402,33034
998295,99999,TROUT COVE,US,FL,,25.217,-80.533,+0003.0,20090701,20180402,33034
722019,99999,ISLAMORADA COAST GUARD STATIO,US,FL,,24.95,-80.58,+0001.0,19750916,19920422,33036
998276,99999,BLACKWATER SOUND,US,FL,,25.183,-80.433,+0003.0,20090701,20180402,33037
998292,99999,LONG SOUND,US,FL,,25.233,-80.45,+0003.0,20090701,20180402,33037
998287,99999,LITTLE BLACKWATER,US,FL,,25.217,-80.433,+0003.0,20090701,20180402,33037
997348,99999,KEY WEST,US,FL,,24.55,-81.8,+0007.0,20050322,20180402,33040
999999,12858,KEY WEST WB CITY,US,FL,,24.567,-81.8,+0007.9,19530701,19570701,33040
747986,99999,MARATHON COAST GUARD STATION,US,FL,,24.72,-81.12,+0001.0,19750916,19841015,33050
997356,99999,VACA KEY,US,FL,,24.72,-81.1,+0010.0,20050322,20180402,33050
999999,12848,DINNER KEY NAF,US,FL,,25.733,-80.233,+0004.0,19450309,19450501,33133
722027,99999,MIAMI BEACH COAST GUARD STATI,US,FL,,25.77,-80.13,+0001.0,19830713,19840103,33139
999999,92811,LIFEGUARD OFFICE,US,FL,,25.806,-80.133,+0002.4,20060101,20120201,33140
997355,99999,VIRGINIA KEY,US,FL,,25.73,-80.15,+0010.0,20050322,20180402,33149
999999,12853,RICHMOND NAS,US,FL,,25.617,-80.417,+0009.1,19450301,19451117,33177
722025,99999,FORT LAUDERDALE HOL,US,FL,,26.067,-80.15,+0003.0,20100801,20100818,33315
722036,99999,LAKE WORTH INLET,US,FL,,26.77,-80.05,+0001.0,19750911,19871013,33404
722035,99999,CLEWISTON,US,FL,,26.75,-80.95,+0006.0,19730101,19780511,33440
994170,99999,DEERFIELD BEACH,US,FL,,26.317,-80.083,+0002.0,19850116,20020601,33441
749054,99999,BUSHNELL FIELD,US,FL,,28.683,-82.083,+0027.0,19440515,19450901,33513
997791,99999,BERTH 223 MET,US,FL,,27.917,-82.433,+0014.0,20070105,20140414,33605
998244,99999,TPA CRUISE TERMINAL 2 TAMPA,US,FL,,27.933,-82.433,+0015.0,20081114,20180402,33605
998269,99999,EAST BAY CAUSEWAY,US,FL,,27.933,-82.433,+0005.0,20090520,20180214,33605
998241,99999,SEABULK TAMPA,US,FL,,27.917,-82.45,+0000.0,20081114,20141229,33606
997357,99999,MCKAY BAY ENTRANCE,US,FL,,27.913,-82.425,+0002.0,20050322,20180402,33619
998212,99999,CAMPBELL PARK,US,FL,,27.767,-82.65,+0015.0,20080915,20141229,33705
997345,99999,CLEARWATER BEACH,US,FL,,27.97,-82.83,+0010.0,20050429,20180402,33767
999999,92827,SEBRING 23 SSE,US,FL,,27.153,-81.369,+0045.7,20071208,20171006,33852
997346,99999,FT MYERS,US,FL,,26.65,-81.87,+0006.0,20050322,20180402,33901
994006,99999,BIG CARLOS PASS,US,FL,,26.4,-81.88,+0003.0,20051020,20160711,33931
724741,99999,LA BELLE MUNI,US,FL,,26.744,-81.433,+0005.5,20061010,20061023,33935
997351,99999,NAPLES,US,FL,,26.12,-81.8,+0010.0,20050322,20180402,34102
998008,99999,ROOKERY BAY RESERVE,US,FL,,26.033,-81.7,+0020.0,20071016,20180402,34114
999999,92826,EVERGLADES CITY 5 NE,US,FL,,25.9,-81.318,+0001.2,20070210,20171006,34141
998306,99999,WILLY WILLY,US,FL,,25.619,-81.044,+0003.0,20090722,20180402,34141
997701,99999,PORT MANATEE,US,FL,,27.63,-82.57,+0003.0,20060710,20180402,34221
994220,99999,VENICE  FL,US,FL,,27.07,-82.45,+0000.0,19850622,20180402,34285
749051,99999,DUNELLON,US,FL,,29.067,-82.367,+0020.0,19431205,19440313,34432
722064,99999,PORT RICHEY (ASOS),US,FL,,28.35,-82.617,+0012.0,19961220,19990111,34669
994009,99999,ANCLOTE GULF PARK,US,FL,,28.18,-82.78,+0006.0,20051020,20130423,34691
722047,99999,FORT PIERCE COAST GUARD STATI,US,FL,,27.47,-80.3,+0001.0,19750916,19900121,34949
999999,63828,NEWTON 8 W,US,GA,,31.313,-84.471,+0053.6,20020827,20171006,39870
999999,63829,NEWTON 11 SW,US,GA,,31.192,-84.447,+0047.6,20020827,20171006,39870
722883,99999,HERMOSA BEACH PIER,US,CA,,33.87,-118.4,+0008.0,19770827,19960630,90254
722916,99999,MALIBU BEACH,US,CA,,34.03,-118.68,+0139.0,19780823,19820702,90265
722954,99999,ZUMA BEACH,US,CA,,34.02,-118.82,+0006.0,19770827,19960630,90265
722985,99999,LONGBEACH RADIO,US,CA,,33.75,-118.333,+0005.0,19750916,19800207,90275
722983,99999,POINT VINCENTE,US,CA,,33.73,-118.4,+0005.0,19880106,19880309,90275
722913,99999,MARINA DEL REY,US,CA,,33.97,-118.43,+0008.0,19771005,19960630,90293
994028,99999,SANTA MONICA PIER,US,CA,,34.008,-118.5,+0002.0,20050419,20180402,90401
999999,03174,ZAMPERINE FIELD AIRPORT,US,CA,,33.8,-118.333,+0029.6,20040702,20041231,90505
999999,03122,TORRANCE AIRPORT,US,CA,,33.802,-118.342,+0027.4,19530525,19540326,90505
722924,99999,SANTA CATALINA ISLAND,US,CA,,33.33,-118.33,+0003.0,19770827,19960630,90704
722958,99999,CABRILLO BEACH,US,CA,,33.72,-118.28,+0008.0,19760130,19960630,90731
999999,93113,SAN PEDRO NAS,US,CA,,33.75,-118.25,+0013.1,19450301,19470601,90731
722986,99999,TERMINAL ISLAND,US,CA,,33.73,-118.27,+0010.0,19770827,19860529,90731
994035,99999,LOS ANGELES,US,CA,,33.72,-118.272,+0002.0,20050419,20180402,90731
722917,99999,LONG BEACH,US,CA,,33.77,-118.17,+0003.0,19780823,19820427,90802
749169,99999,PASADENA,US,CA,,34.133,-118.133,+0231.0,19431115,19441011,91106
999999,23180,NEWHALL AP,US,CA,,34.4,-118.55,+0370.0,19480901,19490801,91355
747041,99999,EL MONTE EMSU,US,CA,,34.083,-118.033,+0091.1,19850531,19900219,91731
998013,99999,TIJUANA RIVER RESERVE,US,CA,,32.575,-117.127,+0004.0,20071016,20180402,91932
999999,23178,MOUNT LAGUNA CAA AP,US,CA,,32.867,-116.417,+1893.1,19490101,19500224,91948
722919,99999,SOLANA BEACH,US,CA,,32.98,-117.27,+0005.0,19831106,19960630,92014
999999,53151,FALLBROOK 5 NE,US,CA,,33.439,-117.19,+0347.5,20080430,20171006,92028
997292,99999,LA JOLLA,US,CA,,32.87,-117.25,+0020.0,20050201,20180402,92037
722959,99999,SCRIPPS PIER / LA JOL,US,CA,,32.87,-117.25,+0004.0,19780823,19900321,92037
722923,99999,CAMP PENDLETON MCAS,US,CA,,33.3,-117.35,+0019.0,19770317,19780206,92058
722929,99999,OCEANSIDE HARBOR,US,CA,,33.22,-117.4,+0009.0,19770827,19960630,92058
720167,99999,RAMONA,US,CA,,33.033,-116.917,+0424.0,20050419,20051105,92065
722914,99999,MISSION BEACH,US,CA,,32.77,-117.23,+0002.0,19780823,19960701,92109
722901,99999,SAN DIEGO/MONTGOMER,US,CA,,32.817,-117.133,+0129.0,19730101,19900206,92123
994027,99999,SAN DIEGO,US,CA,,32.713,-117.173,+0002.0,20050419,20180402,92132
999999,23172,INDIO COACHELLA,US,CA,,33.683,-116.167,-0020.1,19481101,19500508,92236
749166,99999,DESERT CENTER AAF,US,CA,,33.75,-115.333,+0165.0,19430601,19440305,92239
749476,99999,HOLTVILLE NAVAL AUX,US,CA,,32.833,-115.267,+0017.0,19450301,19460301,92250
749477,99999,SALTON SEA,US,CA,,33.417,-115.833,+0000.0,19660101,19700101,92257
690584,99999,LZ BULL / EXERCISE,US,CA,,33.067,-115.067,+0230.1,19990602,20100513,92257
691414,99999,SPEED BAG AIRFIELD,US,CA,,33.267,-115.417,+0093.0,19850424,20121016,92257
999999,93120,THERMAL NAF,US,CA,,33.617,-116.167,-0036.0,19450401,19450801,92274
999999,93118,SALTON SEA NAAF,US,CA,,33.2,-115.833,-0068.9,19450401,19451101,92275
749495,99999,TWENTYNINE PALMS E,US,CA,,34.133,-116.033,+0600.0,19420701,19430403,92277
722864,99999,BIG BEAR CITY ARPT,US,CA,,34.267,-116.85,+2057.0,19801202,19840614,92314
720165,99999,WARNER SPRINGS GLIDERPORT,US,CA,,34.264,-116.854,+2056.8,20070307,20130430,92314
999999,53139,STOVEPIPE WELLS 1 SW,US,CA,,36.602,-117.145,+0025.6,20040504,20171006,92328
722908,99999,EL TORO(USMC),US,CA,,33.667,-117.733,+0117.0,19730101,19890112,92618
722973,99999,NEWPORT BEACH,US,CA,,33.6,-117.88,+0003.0,19770827,19960701,92625
722978,99999,HUNTINGTON BEACH,US,CA,,33.65,-118,+0035.0,19730101,19960630,92648
722933,99999,SAN CLEMENTE,US,CA,,33.42,-117.62,+0003.0,19810506,19960630,92672
723924,99999,VENTURA HARBOR,US,CA,,34.25,-119.25,+0007.0,19770827,19960701,93001
723929,99999,OXNARD / CHANNEL ISLAND,US,CA,,34.17,-119.22,+0002.0,19760130,19960701,93041
723920,99999,SANTA PAULA,US,CA,,34.35,-119.067,+0075.0,19730207,19760305,93060
723923,99999,SANTA BARBARA HARBOR,US,CA,,34.4,-119.7,+0008.0,19770827,19960701,93109
999999,93124,SANTA BARBARA MCAS,US,CA,,34.433,-119.85,+0004.0,19450401,19460301,93117
999999,53152,SANTA BARBARA 11 W,US,CA,,34.414,-119.88,+0005.5,20080814,20171006,93117
722935,99999,EL CAPITAN BEACH,US,CA,,34.467,-120.033,+0027.0,19880107,19960630,93117
749170,99999,GARDNER AAF,US,CA,,35.117,-119.3,+0133.0,19411201,19450221,93252
994023,99999,PORT SAN LUIS,US,CA,,35.177,-120.76,+0002.0,20050419,20180402,93405
999999,93215,POINT ARGUELLO AFWB,US,CA,,34.667,-120.583,+0111.9,19590701,19650401,93436
746060,99999,SOUTH VANDENBERG AFB,US,CA,,34.65,-120.567,+0112.0,19990822,19990822,93436
749178,99999,MORRO BAY,US,CA,,35.367,-120.85,+0020.0,19461001,19470101,93442
723900,99999,POINT PIEDRAS BLANCA,US,CA,,35.67,-121.28,+0017.0,19430607,19981231,93452
723961,99999,PT.PIEDRAS BLANCA,US,CA,,35.667,-121.283,+0010.0,19760730,19770728,93452
999999,23236,SANTA MARIA HANCOCK FIELD,US,CA,,34.933,-120.417,+0071.0,19480101,19541021,93454
999999,03129,MOJAVE MCAS,US,CA,,35.05,-118.167,+0842.5,19551003,19581001,93501
999999,93108,MOJAVE MCAS,US,CA,,35.117,-118.15,+0841.9,19450401,19470101,93501
720662,99999,TEHACHAPI MUNI,US,CA,,35.135,-118.439,+1219.5,20100527,20100527,93561
724917,99999,SALINAS MUNI,US,CA,,36.65,-121.6,+0026.0,20100801,20100817,93908
745054,99999,POINT SUR,US,CA,,36.3,-121.883,+0034.0,19800227,20020802,93920
723914,93218,JOLON HUNTER LIGGETT MIL RES,US,CA,,36,-121.233,+0317.0,19790315,19880105,93928
723884,93218,JOLON HUNTER LIGGETT MIL RES,US,CA,,36,-121.233,+0317.0,19880105,19891127,93928
724913,99999,MONTEREY (FNMOC),US,CA,,36.6,-121.867,+0152.0,20050320,20050320,93940
994019,99999,MONTEREY,US,CA,,36.605,-121.888,+0002.0,20050419,20160615,93940
724915,99999,MONTEREY PENINSULA,US,CA,,36.583,-121.833,+0080.0,20000101,20071231,93940
994041,99999,REDWOOD CITY,US,CA,,37.507,-122.2,+0006.0,20050503,20180402,94063
999999,23272,DOWNTOWN,US,CA,,37.771,-122.427,+0045.7,19450101,20180325,94102
998479,99999,SAN FRANCISCO (PIER 1),US,CA,,37.798,-122.393,+0010.0,20110909,20180402,94105
994033,99999,ALAMEDA,US,CA,,37.772,-122.298,+0002.0,20050419,20180402,94501
994034,99999,PORT CHICAGO,US,CA,,38.057,-122.038,+0002.0,20050419,20180402,94520
724936,99999,CONCORD/BUCHANAN,US,CA,,37.983,-122.05,+0007.0,20100801,20100817,94520
724958,99999,PORT CHICAGO,US,CA,,38.03,-122.03,+0012.0,19750916,19960607,94520
724935,99999,HAYWARD AIR TERM,US,CA,,37.667,-122.117,+0014.0,19730101,20100817,94541
999999,23242,LIVERMORE NAS,US,CA,,37.683,-121.7,+0196.9,19450201,19460811,94550
998475,99999,MARTINEZ-AMORCO,US,CA,,38.033,-122.125,+0010.0,20110909,20180402,94553
998478,99999,PITTSBURG (SUISUN BAY),US,CA,,38.042,-121.887,+0010.0,20110909,20180402,94565
998474,99999,DAVIS POINT  SAN PABLO BAY,US,CA,,38.057,-122.259,+0010.0,20110909,20180402,94572
998011,99999,SAN FRANCISCO BAY RESERVE,US,CA,,38.217,-122.017,+0003.0,20071016,20180402,94585
998197,99999,OAKLAND MIDDLE HARBOR MET,US,CA,,37.8,-122.317,+0007.0,20080721,20180402,94607
998496,99999,OAKLAND,US,CA,,37.795,-122.288,+0004.0,20120507,20180402,94607
998476,99999,OAKLAND (BERTH 34),US,CA,,37.811,-122.333,+0010.0,20110909,20180402,94607
994036,99999,RICHMOND,US,CA,,37.928,-122.4,+0005.6,20050419,20180402,94801
998477,99999,RICHMOND (POINT POTRERO),US,CA,,37.906,-122.365,+0010.0,20110909,20180402,94804
999999,93245,BODEGA 6 WSW,US,CA,,38.321,-123.075,+0019.2,20080614,20171006,94923
994022,99999,POINT REYES,US,CA,,37.99,-122.975,+0002.0,20050419,20180402,94937
724959,99999,POINT REYES COAST GUARD STATI,US,CA,,38,-123.02,+0087.0,19780404,19921020,94937
720935,99999,PETALUMA MUNI,US,CA,,38.258,-122.606,+0026.5,20110517,20130430,94954
720595,99999,HOLLISTER MUNI,US,CA,,36.9,-121.417,+0070.1,20100527,20100527,95023
998173,99999,MOSS LANDING S HARBOR,US,CA,,36.8,-121.783,+0022.0,20071204,20161201,95039
745095,99999,SANTA CRUZ HARBOR,US,CA,,36.97,-122,+0001.0,19760130,19960701,95062
997997,99999,ELKHORN SLOUGH RESERVE,US,CA,,36.817,-121.733,+0003.0,20071016,20180402,95076
720615,99999,COLUMBIA,US,CA,,38.03,-120.415,+0645.6,20090120,20180402,95310
999999,93243,MERCED 23 WSW,US,CA,,37.238,-120.883,+0023.8,20040325,20171001,95322
749180,99999,VERNALIS NAVAL AUX,US,CA,,37.6,-121.3,+0059.0,19450401,19460116,95385
999999,53150,YOSEMITE VILLAGE 12 W,US,CA,,37.759,-119.821,+2017.8,20070928,20171006,95389
999999,23246,SANTA ROSA NAAS,US,CA,,38.417,-122.75,+0042.1,19450301,19470416,95407
725900,99999,FORT BRAGG,US,CA,,39.4,-123.82,+0019.0,19430607,20031207,95437
724953,99999,RIO NIDO,US,CA,,38.517,-122.917,-0999.0,19891111,19900303,95448
994120,99999,POINT ARENA  CA,US,CA,,38.96,-123.74,+0017.4,19850501,20121017,95459
724834,99999,POINT CABRILLO,US,CA,,39.35,-123.82,+0020.0,19810906,19871007,95460
994044,99999,ARENA COVE,US,CA,,38.92,-123.7,+0002.0,20050503,20180402,95468
725947,99999,SAMOA / HUMBOLDT BAY,US,CA,,40.77,-124.23,+0002.0,19750916,19960619,95521
994012,99999,CRESCENT CITY,US,CA,,41.745,-124.183,+0004.8,20050419,20180402,95531
994017,99999,NORTH SPIT,US,CA,,40.767,-124.217,+0002.0,20050419,20180402,95564
725848,99999,SHELTER COVE,US,CA,,40.02,-124.07,+0021.0,19730101,20070628,95589
999999,23271,DOWNTOWN,US,CA,,38.555,-121.418,+0011.6,19960702,20180402,95826
724971,99999,CHICO MUNICIPAL   &,US,CA,,39.783,-121.85,+0073.0,19760305,19900219,95973
999999,23238,WILLIAMS CAA AIRPORT,US,CA,,39.1,-122.15,+0039.0,19481101,19521230,95987
725956,99999,BURNEY,US,CA,,40.883,-121.667,+0957.0,20041109,20041109,96013
999999,04222,REDDING 12 WNW,US,CA,,40.651,-122.607,+0432.2,20030326,20171006,96033
721027,99999,TRINITY CENTER,US,CA,,40.983,-122.694,+0728.5,20120302,20130430,96091
725950,99999,ALTURAS,US,CA,,41.5,-120.533,+1341.0,19730101,19760305,96101
999999,23226,DONNER SUMMIT,US,CA,,39.317,-120.333,+2194.0,19481101,19520131,96161